,address_id,address,address2,district,city_id,postal_code,phone,location,last_update,_merge
0,56,939 Probolinggo Loop,NaN,Galicia,1,4166,680428310138,b'\x00\x00\x00\x00\x01\x01\x00\x00\x00\x00\x00\x00\x00\x00\x00\x00\x00\x00\x00\x00\x00\x00\x00\x00\x00',2014-09-25 22:33:08,left_only
1,580,923 Tangail Boulevard,NaN,Tokyo-to,10,33384,315528269898,b'\x00\x00\x00\x00\x01\x01\x00\x00\x00x\xe5\xc4h\xa7ka@\xc3\xa2}\x07\x9a\xdaA@',2014-09-25 22:31:45,left_only
2,538,1817 Livorno Way,NaN,Khanh Hoa,100,79401,478380208348,"b""\x00\x00\x00\x00\x01\x01\x00\x00\x00\x94JxB/J[@#m>\t\xc7\xd7'@""",2014-09-25 22:34:05,left_only
3,532,1427 Tabuk Place,NaN,Florida,101,31342,214756839122,b'\x00\x00\x00\x00\x01\x01\x00\x00\x00<p)B\xc5|T\xc0*]UQ\x17\x90:@',2014-09-25 22:33:47,left_only
4,115,1378 Alvorada Avenue,NaN,Distrito Federal,102,75834,272234298332,b'\x00\x00\x00\x00\x01\x01\x00\x00\x00\x0c4D\xbaD\xb8P\xc0G\xb17\x8c\xdd\xf9$@',2014-09-25 22:34:03,left_only
5,584,1819 Alessandria Loop,NaN,Campeche,103,53829,377633994405,b'\x00\x00\x00\x00\x01\x01\x00\x00\x00\x866\xa5a\x1d\xf5V\xc07O\x1a\x0f[\xa52@',2014-09-25 22:32:02,left_only
6,393,717 Changzhou Lane,NaN,Southern Tagalog,104,21615,426255288071,b'\x00\x00\x00\x00\x01\x01\x00\x00\x00\x00\x00\x00\x00\x00\x00\x00\x00\x00\x00\x00\x00\x00\x00\x00\x00',2014-09-25 22:32:36,left_only
7,69,698 Otsu Street,NaN,Cayenne,105,71110,409983924481,b'\x00\x00\x00\x00\x01\x01\x00\x00\x00\xd8y\xc0\xe1\xaa*J\xc0\xd5~\xc6\xe0\xbc\xbb\x13@',2014-09-25 22:31:02,left_only
8,593,1402 Zanzibar Boulevard,NaN,Guanajuato,106,71102,387448063440,b'\x00\x00\x00\x00\x01\x01\x00\x00\x00\xfc\xb7\xdc\xaa54Y\xc0\\xa8\xa1\xb2\x06\x864@',2014-09-25 22:32:03,left_only
9,171,1540 Wroclaw Drive,NaN,Maharashtra,107,62686,182363341674,b'\x00\x00\x00\x00\x01\x01\x00\x00\x00N\x10\xd0\xd8\xf2\xd2S@|\xfb)Dv\xf23@',2014-09-25 22:31:14,left_only
10,79,1551 Rampur Lane,NaN,Changhwa,108,72394,251164340471,b'\x00\x00\x00\x00\x01\x01\x00\x00\x00\x00\x00\x00\x00\x00\x00\x00\x00\x00\x00\x00\x00\x00\x00\x00\x00',2014-09-25 22:33:14,left_only
11,201,817 Bradford Loop,NaN,Ji´angsu,109,89459,264286442804,b'\x00\x00\x00\x00\x01\x01\x00\x00\x00\xc3\xe1\xbb\x83\x0e\xfd]@\x06\xb2C\xa1\n\xc6?@',2014-09-25 22:30:31,left_only
12,484,98 Pyongyang Boulevard,NaN,Ohio,11,88749,191958435142,b'\x00\x00\x00\x00\x01\x01\x00\x00\x00\x8a\xb1\xa7x7aT\xc0\x99\x05$\xabl\x8aD@',2014-09-25 22:33:42,left_only
13,514,1747 Rustenburg Place,NaN,Bihar,110,51369,442673923363,b'\x00\x00\x00\x00\x01\x01\x00\x00\x00\x0b\xfd]\xe9\xc6.U@A\xc4\xbc}\x0c\xc89@',2014-09-25 22:31:14,left_only
14,411,264 Bhimavaram Manor,NaN,St Thomas,111,54749,302526949177,b'\x00\x00\x00\x00\x01\x01\x00\x00\x00\x00\x00\x00\x00\x00\x00\x00\x00\x00\x00\x00\x00\x00\x00\x00\x00',2014-09-25 22:34:08,left_only
15,561,1497 Fengshan Drive,NaN,KwaZulu-Natal,112,63022,368738360376,b'\x00\x00\x00\x00\x01\x01\x00\x00\x00\x93\x8f\xdd\x05J\xe4>@*\xf9}\xa4-\xeb=\xc0',2014-09-25 22:33:03,left_only
16,92,1942 Ciparay Parkway,NaN,Cheju,113,82624,978987363654,b'\x00\x00\x00\x00\x01\x01\x00\x00\x00H\xf1;\x97\xf3\xa2_@5\x8e\xa2\x18j\xb3@@',2014-09-25 22:33:06,left_only
17,77,1947 Poços de Caldas Boulevard,NaN,Chiayi,114,60951,427454485876,b'\x00\x00\x00\x00\x01\x01\x00\x00\x00/\x06\xc5E$\x19^@\xb4G^\x8c7v7@',2014-09-25 22:33:14,left_only
18,42,269 Cam Ranh Parkway,NaN,Chisinau,115,34689,489783829737,b'\x00\x00\x00\x00\x01\x01\x00\x00\x00\xad\x97\xf0\x95\x8a\xdb<@\xcc\xd4\x7f1\xb6\x80G@',2014-09-25 22:32:15,left_only
19,523,608 Birgunj Parkway,NaN,Taipei,116,400,627425618482,b'\x00\x00\x00\x00\x01\x01\x00\x00\x00\x00\x00\x00\x00\x00\x00\x00\x00\x00\x00\x00\x00\x00\x00\x00\x00',2014-09-25 22:33:14,left_only
20,416,1445 Carmen Parkway,NaN,West Java,117,70809,598912394463,"b'\x00\x00\x00\x00\x01\x01\x00\x00\x00\x95yP\xf5P\xc5Z@\xb3\xbf\xa2\x11""\x17\x1b\xc0'",2014-09-25 22:31:30,left_only
21,243,47 Syktyvkar Lane,NaN,West Java,118,22236,63937119031,b'\x00\x00\x00\x00\x01\x01\x00\x00\x00\xed\xab\xbc.\x8d\xb0Z@\xc3\xc19~\x03~\x1a\xc0',2014-09-25 22:31:31,left_only
22,333,1860 Taguig Loop,NaN,West Java,119,59550,38158430589,b'\x00\x00\x00\x00\x01\x01\x00\x00\x00B\xac\xa3O\xd0\xe5Z@\xd6\x98\xc6\xe5.\xd8\x1b\xc0',2014-09-25 22:31:32,left_only
23,102,669 Firozabad Loop,NaN,Abu Dhabi,12,92265,412903167998,b'\x00\x00\x00\x00\x01\x01\x00\x00\x00\x9cv\xe7?Z\xe1K@J\xd0_\xe8\x1118@',2014-09-25 22:33:35,left_only
24,18,770 Bydgoszcz Avenue,NaN,California,120,16266,517338314235,b'\x00\x00\x00\x00\x01\x01\x00\x00\x00mc\xa2\xf7\xfcQ^\xc0L\x04\x059\x83ZC@',2014-09-25 22:33:47,left_only
25,30,18 Duisburg Boulevard,NaN,NaN,121,58327,998009777982,b'\x00\x00\x00\x00\x01\x01\x00\x00\x00\x00\x00\x00\x00\x00\x00\x00\x00\x00\x00\x00\x00\x00\x00\x00\x00',2014-09-25 22:31:08,left_only
26,209,1679 Antofagasta Street,NaN,Alto Paran,122,86599,905903574913,b'\x00\x00\x00\x00\x01\x01\x00\x00\x00\x00\x00\x00\x00\x00\x00\x00\x00\x00\x00\x00\x00\x00\x00\x00\x00',2014-09-25 22:32:32,left_only
27,144,1666 Beni-Mellal Place,NaN,Tennessee,123,13377,9099941466,b'\x00\x00\x00\x00\x01\x01\x00\x00\x00\x05\xd1\xa4^\x01\xd7U\xc0\x84\xcc\xdf\xce\xcfCB@',2014-09-25 22:33:48,left_only
28,251,1473 Changhwa Parkway,NaN,Mxico,124,75933,266798132374,b'\x00\x00\x00\x00\x01\x01\x00\x00\x00\x00\x00\x00\x00\x00\x00\x00\x00\x00\x00\x00\x00\x00\x00\x00\x00',2014-09-25 22:32:03,left_only
29,487,1785 São Bernardo do Campo Street,NaN,Veracruz,125,71182,684529463244,"b'\x00\x00\x00\x00\x01\x01\x00\x00\x00\xa1U\x1c\xbdP\x9cW\xc0\x14\x1fD\xd7*""2@'",2014-09-25 22:32:04,left_only
30,186,533 al-Ayn Boulevard,NaN,California,126,8862,662227486184,"b'\x00\x00\x00\x00\x01\x01\x00\x00\x00\xbf""d\xc5\x15\x8e]\xc0\x853\xaen\xab\xf2@@'",2014-09-25 22:33:48,left_only
31,521,568 Dhule (Dhulia) Loop,NaN,Coquimbo,127,92568,602101369463,b'\x00\x00\x00\x00\x01\x01\x00\x00\x00\x00\x00\x80J)o\xc5\xc1\xdd\xa8_3\n\xc1>\xc0',2014-09-25 22:30:30,left_only
32,28,96 Tafuna Way,NaN,Córdoba,128,99865,934730187245,b'\x00\x00\x00\x00\x01\x01\x00\x00\x00\x00\x00\x00\x00\x00\x00\x00\x00\x00\x00\x00\x00\x00\x00\x00\x00',2014-09-25 22:30:05,left_only
33,472,1447 Chatsworth Place,NaN,Chihuahua,129,41545,769370126331,b'\x00\x00\x00\x00\x01\x01\x00\x00\x00\x00\x00\x00\x00\x00\x00\x00\x00\x00\x00\x00\x00\x00\x00\x00\x00',2014-09-25 22:32:04,left_only
34,74,1124 Buenaventura Drive,NaN,Mekka,13,6856,407733804223,b'\x00\x00\x00\x00\x01\x01\x00\x00\x00\x00\x00\x00\x00\x00\x00\x00\x00\x00\x00\x00\x00\x00\x00\x00\x00',2014-09-25 22:32:59,left_only
35,328,479 San Felipe del Progreso Avenue,NaN,Morelos,130,54949,869051782691,b'\x00\x00\x00\x00\x01\x01\x00\x00\x00\xc8~q\x04\x84\xbcX\xc09\xfd\x8f\x02\xfa\xcd2@',2014-09-25 22:32:04,left_only
36,581,186 Skikda Lane,NaN,Morelos,131,89422,14465669789,b'\x00\x00\x00\x00\x01\x01\x00\x00\x00H\xc2\xbe\x9d\xc4\xceX\xc0\xda=\xd4\x11\x1b\xed2@',2014-09-25 22:32:05,left_only
37,117,1079 Tel Aviv-Jaffa Boulevard,NaN,Sucre,132,10885,358178933857,b'\x00\x00\x00\x00\x01\x01\x00\x00\x00\x00\x00\x00\x00\x00\x00\x00\x00\x00\x00\x00\x00\x00\x00\x00\x00',2014-09-25 22:34:04,left_only
38,578,1405 Hagonoy Avenue,NaN,Slaskie,133,86587,867287719310,b'\x00\x00\x00\x00\x01\x01\x00\x00\x00$1\xf7\x7f\xc4\x1f3@\xf5\xb0a\x97\xf2eI@',2014-09-25 22:32:42,left_only
39,421,966 Arecibo Loop,NaN,Sind,134,94018,15273765306,b'\x00\x00\x00\x00\x01\x01\x00\x00\x00\xbe\x9b\x13 \xaf\xf1P@\xd94\x00e\x9d\xbb:@',2014-09-25 22:32:30,left_only
40,405,530 Lausanne Lane,NaN,Texas,135,11067,775235029633,b'\x00\x00\x00\x00\x01\x01\x00\x00\x00\x9c\x83\x0c\x89\xa03X\xc0\xe2\xd3\xf7u;d@@',2014-09-25 22:33:49,left_only
41,265,1158 Mandi Bahauddin Parkway,NaN,Shanxi,136,98484,276555730211,b'\x00\x00\x00\x00\x01\x01\x00\x00\x00\xec\xc8GA\xa6R\@\xa9<p\x84\xfb\x0bD@',2014-09-25 22:30:32,left_only
42,352,1673 Tangail Drive,NaN,Daugavpils,137,26857,627924259271,b'\x00\x00\x00\x00\x01\x01\x00\x00\x00Cw\xa4U\x88\x88:@\xe5\x80\xb8\x06\x11\xf1K@',2014-09-25 22:31:57,left_only
43,31,217 Botshabelo Place,NaN,Southern Mindanao,138,49521,665356572025,b'\x00\x00\x00\x00\x01\x01\x00\x00\x00\x00\x00\x00\x00\x00\x00\x00\x00\x00\x00\x00\x00\x00\x00\x00\x00',2014-09-25 22:32:36,left_only
44,68,1966 Amroha Avenue,NaN,Sichuan,139,70385,333489324603,b'\x00\x00\x00\x00\x01\x01\x00\x00\x00\nwx\x19\x0f\xe0Z@/`\x13\xe3F7?@',2014-09-25 22:30:32,left_only
45,596,1759 Niznekamsk Avenue,NaN,al-Manama,14,39414,864392582257,"b'\x00\x00\x00\x00\x01\x01\x00\x00\x00\x04M\x959\xa7JI@\x12$\x00I""7:@'",2014-09-25 22:30:11,left_only
46,299,32 Pudukkottai Lane,NaN,Ohio,140,38834,967274728547,"b'\x00\x00\x00\x00\x01\x01\x00\x00\x00\x07z\xa8mC\x0cU\xc0@\x9c,Z%\xe1C@'",2014-09-25 22:33:49,left_only
47,414,1936 Lapu-Lapu Parkway,NaN,Bauchi & Gombe,141,7122,653436985797,b'\x00\x00\x00\x00\x01\x01\x00\x00\x00\x00\x00\x00\x00\x00\x00\x00\x00\x00\x00\x00\x00\x00\x00\x00\x00',2014-09-25 22:32:23,left_only
48,488,698 Jelets Boulevard,NaN,Denizli,142,2596,975185523021,b'\x00\x00\x00\x00\x01\x01\x00\x00\x00\xee\xcdo\x98h\x16=@\xb2&\xbb>\x18\xe3B@',2014-09-25 22:33:24,left_only
49,337,1838 Tabriz Lane,NaN,Dhaka,143,1195,38988715447,b'\x00\x00\x00\x00\x01\x01\x00\x00\x00\x1a]\x94\x8f\x13\x9aV@\xc4\xd2\x1bI\xdd\xb57@',2014-09-25 22:30:12,left_only
50,445,495 Bhimavaram Lane,NaN,Maharashtra,144,3,82088937724,b'\x00\x00\x00\x00\x01\x01\x00\x00\x00>\xe1\x91\x1d\xc0\xb1R@\xb3\x99CR\x0b\xe74@',2014-09-25 22:31:15,left_only
51,471,1322 Mosul Parkway,NaN,Shandong,145,95400,268053970382,b'\x00\x00\x00\x00\x01\x01\x00\x00\x00(VWOw\x9f]@$%\xe2R:\xbbB@',2014-09-25 22:30:32,left_only
52,298,44 Najafabad Way,NaN,Baskimaa,146,61391,96604821070,b'\x00\x00\x00\x00\x01\x01\x00\x00\x00\x00\x00\x00\x00\x00\x00\x00\x00\x00\x00\x00\x00\x00\x00\x00\x00',2014-09-25 22:33:08,left_only
53,124,241 Mosul Lane,NaN,Risaralda,147,76157,765345144779,b'\x00\x00\x00\x00\x01\x01\x00\x00\x00\x98:#\xa5\xb4\xeaR\xc0aU\xbd\xfcN[\x13@',2014-09-25 22:30:52,left_only
54,118,442 Rae Bareli Place,NaN,Nordrhein-Westfalen,148,24321,886636413768,b'\x00\x00\x00\x00\x01\x01\x00\x00\x00\xc1\x9e\xc0\x85\x86\x0f\x1b@\xe3~\xd1/[\xb7I@',2014-09-25 22:31:04,left_only
55,146,483 Ljubertsy Parkway,NaN,Scotland,149,60562,581174211853,b'\x00\x00\x00\x00\x01\x01\x00\x00\x00\xc5>\\xcd\x95\xcc\x07\xc0\xfa\xfdQ\x8a\x0c<L@',2014-09-25 22:33:36,left_only
56,400,1152 Citrus Heights Manor,NaN,al-Qadarif,15,5239,765957414528,"b'\x00\x00\x00\x00\x01\x01\x00\x00\x00\x84\xf6E\x9d\x14\xb1A@\xaa6\xee\x83\xe2\x11,@'",2014-09-25 22:33:11,left_only
57,435,740 Udaipur Lane,NaN,Nizni Novgorod,150,33505,497288595103,b'\x00\x00\x00\x00\x01\x01\x00\x00\x00\x00\x00\x00\x00\x00\x00\x00\x00\x00\x00\x00\x00\x00\x00\x00\x00',2014-09-25 22:32:47,left_only
58,346,1217 Konotop Avenue,NaN,Gelderland,151,504,718917251754,"b'\x00\x00\x00\x00\x01\x01\x00\x00\x00\xf48g\x9f""\xa2\x16@\x19\xb4\xeb9D\x04J@'",2014-09-25 22:32:20,left_only
59,291,1155 Liaocheng Place,NaN,Oyo & Osun,152,22650,558236142492,b'\x00\x00\x00\x00\x01\x01\x00\x00\x00\x00\x00\x00\x00\x00\x00\x00\x00\x00\x00\x00\x00\x00\x00\x00\x00',2014-09-25 22:32:23,left_only
60,460,659 Gatineau Boulevard,NaN,La Paz,153,28587,205524798287,b'\x00\x00\x00\x00\x01\x01\x00\x00\x00\x17\xe7\xb9\xcf\xbb\x0bQ\xc0\xa0)\x85\x8a\xbb{0\xc0',2014-09-25 22:30:13,left_only
61,456,814 Simferopol Loop,NaN,Sinaloa,154,48745,524567129902,b'\x00\x00\x00\x00\x01\x01\x00\x00\x00\x95C0\xb3\xf4/[\xc0\x90\xcc\xd9\xf1\x151:@',2014-09-25 22:32:05,left_only
62,425,1866 al-Qatif Avenue,NaN,California,155,89420,546793516940,b'\x00\x00\x00\x00\x01\x01\x00\x00\x00\xb4\xeez\xc4\xc3\x81]\xc0\x16](\xaa\xc8\x08A@',2014-09-25 22:33:50,left_only
63,21,270 Toulon Boulevard,NaN,Kalmykia,156,81766,407752414682,"b""\x00\x00\x00\x00\x01\x01\x00\x00\x00\xfd\x0b\xa9G\xbf F@1mIXe'G@""",2014-09-25 22:32:48,left_only
64,394,753 Ilorin Avenue,NaN,Sichuan,157,3656,464511145118,b'\x00\x00\x00\x00\x01\x01\x00\x00\x00\x851\xd8\xc3\xcd\xd8Y@Y\xd7\r\x80]\x88=@',2014-09-25 22:30:32,left_only
65,479,1854 Okara Boulevard,NaN,Drenthe,158,42123,131912793873,b'\x00\x00\x00\x00\x01\x01\x00\x00\x00n\x8a\xc7E\xb5\xa0\x1b@\x94{\xcb\xe6\xbbcJ@',2014-09-25 22:32:21,left_only
66,114,804 Elista Drive,NaN,Hubei,159,61069,379804592943,b'\x00\x00\x00\x00\x01\x01\x00\x00\x00\x9e\x01?\xf4\xee^[@\xe7\xe0\x99\xd0$_>@',2014-09-25 22:30:33,left_only
67,422,289 Santo André Manor,NaN,al-Sharqiya,16,72410,214976066017,b'\x00\x00\x00\x00\x01\x01\x00\x00\x00\x00\x00\x00\x00\x00\x00\x00\x00\x00\x00\x00\x00\x00\x00\x00\x00',2014-09-25 22:32:59,left_only
68,453,319 Springs Loop,NaN,Baijeri,160,99552,72524459905,b'\x00\x00\x00\x00\x01\x01\x00\x00\x00jb\xcb<\x03\x04&@\x81\xfe\xe7\xd5\xa5\xcbH@',2014-09-25 22:31:05,left_only
69,450,203 Tambaram Street,NaN,Buenos Aires,161,73942,411549550611,b'\x00\x00\x00\x00\x01\x01\x00\x00\x00\xe7S\xc7*\xa5`M\xc0C\x8c\xd7\xbc\xaa*A\xc0',2014-09-25 22:30:05,left_only
70,14,1531 Salé Drive,NaN,Esfahan,162,53628,648856936185,b'\x00\x00\x00\x00\x01\x01\x00\x00\x00\xde\tQ\x19Z\xd6I@cZ@\r\x84S@@',2014-09-25 22:31:36,left_only
71,512,1269 Ipoh Avenue,NaN,Eskisehir,163,54674,402630109080,b'\x00\x00\x00\x00\x01\x01\x00\x00\x00\xe9\xd3*\xfaC\x85>@v}0:j\xe3C@',2014-09-25 22:33:24,left_only
72,125,211 Chiayi Drive,NaN,Uttar Pradesh,164,58186,665993880048,b'\x00\x00\x00\x00\x01\x01\x00\x00\x00\xa4K\xa4\xd9a\xc1S@\x07\xf2G\xac \xc7:@',2014-09-25 22:31:15,left_only
73,536,166 Jinchang Street,NaN,Buenos Aires,165,86760,717566026669,b'\x00\x00\x00\x00\x01\x01\x00\x00\x00>\xb8\x96$*CM\xc0\xe0w\x1d\xbbUmA\xc0',2014-09-25 22:30:05,left_only
74,318,1774 Yaoundé Place,NaN,Hubei,166,91400,613124286867,b'\x00\x00\x00\x00\x01\x01\x00\x00\x00*\x00\xc63\xe8\xb1\@Lc\xc5\xba\x02}>@',2014-09-25 22:30:33,left_only
75,47,1447 Imus Way,NaN,Tahiti,167,48942,539758313890,b'\x00\x00\x00\x00\x01\x01\x00\x00\x00\x90\xce\nV\xe6\xb5b\xc0Y\xbb\x92\x89\x00\x8e1\xc0',2014-09-25 22:31:02,left_only
76,582,1568 Celaya Parkway,NaN,Kaohsiung,168,34750,278669994384,b'\x00\x00\x00\x00\x01\x01\x00\x00\x00\x00\x00\x00\x00\x00\x00\x00\x00\x00\x00\x00\x00\x00\x00\x00\x00',2014-09-25 22:33:15,left_only
77,196,9 San Miguel de Tucumán Manor,NaN,Uttar Pradesh,169,90845,956188728558,b'\x00\x00\x00\x00\x01\x01\x00\x00\x00g\xdb\xc4$\xb7\x99S@\xa4a\xe7\@&;@',2014-09-25 22:31:15,left_only
78,37,127 Purnea (Purnia) Manor,NaN,Piemonte,17,79388,911872220378,b'\x00\x00\x00\x00\x01\x01\x00\x00\x00*+\x97\xd7[8!@\xf2\x89+\x1dbtF@',2014-09-25 22:31:42,left_only
79,465,734 Tanshui Avenue,NaN,Caquet,170,70664,366776723320,b'\x00\x00\x00\x00\x01\x01\x00\x00\x00\x00\x00\x00\x00\x00\x00\x00\x00\x00\x00\x00\x00\x00\x00\x00\x00',2014-09-25 22:30:52,left_only
80,55,1135 Izumisano Parkway,NaN,California,171,48150,171822533480,"b""\x00\x00\x00\x00\x01\x01\x00\x00\x00\x97c\xc3\xe4\xd7[]\xc0y\x9a'2\xce\x0bA@""",2014-09-25 22:33:50,left_only
81,145,928 Jaffna Loop,NaN,Hiroshima,172,93762,581852137991,b'\x00\x00\x00\x00\x01\x01\x00\x00\x00/)\x88\xcb\xbb\xab`@\xe2\xff3\xef\xdd=A@',2014-09-25 22:31:45,left_only
82,109,454 Nakhon Sawan Boulevard,NaN,Funafuti,173,76383,963887147572,"b'\x00\x00\x00\x00\x01\x01\x00\x00\x00X""\xab\xb66ff@\xfft\xa8Kk\x0c!\xc0'",2014-09-25 22:33:31,left_only
83,215,1333 Haldia Street,NaN,Jilin,174,82161,408304391718,b'\x00\x00\x00\x00\x01\x01\x00\x00\x00\x07\xa5\x1eXD4_@L\xe7\x1emw\x97F@',2014-09-25 22:30:33,left_only
84,286,1308 Sumy Loop,NaN,Fujian,175,30657,583021225407,b'\x00\x00\x00\x00\x01\x01\x00\x00\x00\xdcz\xf2U\x97\xd3]@\x96\x17\xaa\xac\xb7\x0f:@',2014-09-25 22:30:34,left_only
85,121,1967 Sincelejo Place,NaN,Gujarat,176,73644,577812616052,"b'\x00\x00\x00\x00\x01\x01\x00\x00\x00Y\x91,\xbb\xbb+R@\x8d\xbc\x07Cx77@'",2014-09-25 22:31:16,left_only
86,599,1895 Zhezqazghan Drive,NaN,California,177,36693,137809746111,b'\x00\x00\x00\x00\x01\x01\x00\x00\x00>\xc7\xec\xd1@|]\xc0W\xfa\x1a\x93\x0f\xe3@@',2014-09-25 22:33:51,left_only
87,567,1894 Boa Vista Way,NaN,Texas,178,77464,239357986667,b'\x00\x00\x00\x00\x01\x01\x00\x00\x00\xc1\xd1D\x8e\xe3(X\xc0\xad\x8d\x0c\xcd\xd0t@@',2014-09-25 22:33:51,left_only
88,481,1153 Allende Way,NaN,Québec,179,20336,856872225376,b'\x00\x00\x00\x00\x01\x01\x00\x00\x00\x00\x00\x00\x00\x00\x00\x00\x00\x00\x00\x00\x00\x00\x00\x00\x00',2014-09-25 22:30:26,left_only
89,179,431 Xi´angtan Avenue,NaN,Kerala,18,4854,230250973122,b'\x00\x00\x00\x00\x01\x01\x00\x00\x00\x00\x00\x00\x00\x00\x00\x00\x00\x00\x00\x00\x00\x00\x00\x00\x00',2014-09-25 22:31:10,left_only
90,485,984 Novotšerkassk Loop,NaN,Gaziantep,180,28165,435118527255,b'\x00\x00\x00\x00\x01\x01\x00\x00\x00\xca\xafz\x1b\xf6\xb0B@\xaa\x88\x89\xbc\x9b\x87B@',2014-09-25 22:33:25,left_only
91,399,331 Bydgoszcz Parkway,NaN,Asturia,181,966,537374465982,b'\x00\x00\x00\x00\x01\x01\x00\x00\x00\x00\x00\x00\x00\x00\x00\x00\x00\x00\x00\x00\x00\x00\x00\x00\x00',2014-09-25 22:33:09,left_only
92,466,118 Jaffna Loop,NaN,Northern Mindanao,182,10447,325526730021,b'\x00\x00\x00\x00\x01\x01\x00\x00\x00(\xb2{\x97wG_@\xba\xeaK\x80\xab\xaa!@',2014-09-25 22:32:36,left_only
93,96,984 Effon-Alaiye Avenue,NaN,Gois,183,17119,132986892228,b'\x00\x00\x00\x00\x01\x01\x00\x00\x00\x00\x00\x00\x00\x00\x00\x00\x00\x00\x00\x00\x00\x00\x00\x00\x00',2014-09-25 22:30:17,left_only
94,207,1688 Nador Lane,NaN,Sulawesi Utara,184,61613,652218196731,b'\x00\x00\x00\x00\x01\x01\x00\x00\x00\xe3XrpD\x94^@\x93\xf19\xc1H\xb9\xe8?',2014-09-25 22:31:32,left_only
95,122,333 Goiânia Way,NaN,Texas,185,78625,909029256431,b'\x00\x00\x00\x00\x01\x01\x00\x00\x00*\xe6{\xa1\xdb?X\xc0\xe4k*\xe6{_@@',2014-09-25 22:33:51,left_only
96,177,1010 Klerksdorp Way,NaN,Steiermark,186,6802,493008546874,b'\x00\x00\x00\x00\x01\x01\x00\x00\x00\xcf\xee5\xa9\r\xe7.@\x9c\x04%\xbb\x88\x88G@',2014-09-25 22:30:10,left_only
97,162,369 Papeete Way,NaN,North Carolina,187,66639,170117068815,b'\x00\x00\x00\x00\x01\x01\x00\x00\x00\xc4\x9df\xdc\xaf\xf2S\xc0z-2KL\tB@',2014-09-25 22:33:52,left_only
98,369,817 Laredo Avenue,NaN,Jalisco,188,77449,151249681135,b'\x00\x00\x00\x00\x01\x01\x00\x00\x00\xf0\x0b\xf9\xb1\x13\xd9Y\xc0>N\xe2\xbd\xb4\xaa4@',2014-09-25 22:32:06,left_only
99,432,259 Ipoh Drive,NaN,São Paulo,189,64964,419009857119,b'\x00\x00\x00\x00\x01\x01\x00\x00\x00\x00\x00\x00\x00\x00\x00\x00\x00\x00\x00\x00\x00\x00\x00\x00\x00',2014-09-25 22:30:18,left_only
100,419,397 Sunnyvale Avenue,NaN,Guanajuato,19,55566,680851640676,b'\x00\x00\x00\x00\x01\x01\x00\x00\x00uD\x19\x05\x9c/Y\xc0$\t\xc2\x15P\xea4@',2014-09-25 22:32:01,left_only
101,134,758 Junan Lane,NaN,Gois,190,82639,935448624185,b'\x00\x00\x00\x00\x01\x01\x00\x00\x00\x00\x00\x00\x00\x00\x00\x00\x00\x00\x00\x00\x00\x00\x00\x00\x00',2014-09-25 22:30:18,left_only
102,375,1049 Matamoros Parkway,NaN,Karnataka,191,69640,960505250340,b'\x00\x00\x00\x00\x01\x01\x00\x00\x00y#\xf3\xc8\x9f5S@8gDioV1@',2014-09-25 22:31:16,left_only
103,260,127 Iwakuni Boulevard,NaN,Central Luzon,192,20777,987442542471,b'\x00\x00\x00\x00\x01\x01\x00\x00\x00\x0eiT\xe0\xe4.^@\xaf\x05b~\x13\xab-@',2014-09-25 22:32:37,left_only
104,558,904 Clarksville Drive,NaN,Zhejiang,193,52234,955349440539,b'\x00\x00\x00\x00\x01\x01\x00\x00\x00\xe5\x88kk\xfa*^@8\xe0N}{z>@',2014-09-25 22:30:34,left_only
105,203,1149 A Coruña (La Coruña) Boulevard,NaN,Haiphong,194,95824,470884141195,b'\x00\x00\x00\x00\x01\x01\x00\x00\x00us\xf1\xb7\xbd\xabZ@P\xa0\x99qd\xdd4@',2014-09-25 22:34:06,left_only
106,190,435 0 Way,NaN,West Bengali,195,74750,760171523969,b'\x00\x00\x00\x00\x01\x01\x00\x00\x00\xd9\x84j9\x06\x07V@\x03qh\xdbz\x0f6@',2014-09-25 22:31:16,left_only
107,468,1844 Usak Avenue,NaN,Nova Scotia,196,84461,164414772677,b'\x00\x00\x00\x00\x01\x01\x00\x00\x00B\x05\x87\x17D\xc9O\xc0\x16+\x0fw\x9aRF@',2014-09-25 22:30:27,left_only
108,264,1027 Banjul Place,NaN,West Bengali,197,50390,538241037443,"b'\x00\x00\x00\x00\x01\x01\x00\x00\x00\xfe\x14"";\xca\x1aV@\xaco`r\xa3\xee6@'",2014-09-25 22:31:16,left_only
109,255,1966 Tonghae Street,NaN,Anhalt Sachsen,198,36481,567359279425,b'\x00\x00\x00\x00\x01\x01\x00\x00\x00\x00\x00\x00\x98%\xd5\x9dAE\n\n(y\xc8I@',2014-09-25 22:31:05,left_only
110,169,154 Tallahassee Loop,NaN,Xinxiang,199,62250,935508855935,b'\x00\x00\x00\x00\x01\x01\x00\x00\x00\x00\x00\x00\x00\x00\x00\x00\x00\x00\x00\x00\x00\x00\x00\x00\x00',2014-09-25 22:30:34,left_only
111,105,733 Mandaluyong Place,NaN,Asir,2,77459,196568435814,b'\x00\x00\x00\x00\x01\x01\x00\x00\x00x#\x98\x0f\xad@E@y\x8f\xd8\x93e72@',2014-09-25 22:32:59,left_only
112,364,1623 Kingstown Drive,NaN,Buenos Aires,20,91299,296394569728,b'\x00\x00\x00\x00\x01\x01\x00\x00\x00y\x15c\xaa\xaa*M\xc0\xe4\x83\x9e\xcd\xaajA\xc0',2014-09-25 22:30:04,left_only
113,12,478 Joliet Way,NaN,Hamilton,200,77948,657282285970,b'\x00\x00\x00\x00\x01\x01\x00\x00\x00\xdc\x84\xd6\x1e\x11\xe9e@r\xb753D\xe4B\xc0',2014-09-25 22:32:22,left_only
114,345,68 Ponce Parkway,NaN,Hanoi,201,85926,870635127812,b'\x00\x00\x00\x00\x01\x01\x00\x00\x00]\xf5%\xc0\xd5uZ@\x00\xf6\x1b7F\x065@',2014-09-25 22:34:06,left_only
115,154,781 Shimonoseki Drive,NaN,Michoacn de Ocampo,202,95444,632316273199,b'\x00\x00\x00\x00\x01\x01\x00\x00\x00\x00\x00\x00\x00\x00\x00\x00\x00\x00\x00\x00\x00\x00\x00\x00\x00',2014-09-25 22:32:06,left_only
116,269,446 Kirovo-Tšepetsk Lane,NaN,Osaka,203,19428,303967439816,b'\x00\x00\x00\x00\x01\x01\x00\x00\x00\x8d\x94\xd2\xd8\xc3\xf3`@`\x8c\xedZ\xe7UA@',2014-09-25 22:31:45,left_only
117,198,345 Oshawa Boulevard,NaN,Tokyo-to,204,32114,104491201771,"b""\x00\x00\x00\x00\x01\x01\x00\x00\x00\xfb^\x9e)\xcfla@K\xfc\xf6\x1a'\xd6A@""",2014-09-25 22:31:45,left_only
118,304,1635 Kuwana Boulevard,NaN,Hiroshima,205,52137,710603868323,b'\x00\x00\x00\x00\x01\x01\x00\x00\x00\xaa\x94C0\xb3\x8e`@$p5\xfc\xb82A@',2014-09-25 22:31:46,left_only
119,475,434 Ourense (Orense) Manor,NaN,Hodeida,206,14122,562370137426,b'\x00\x00\x00\x00\x01\x01\x00\x00\x00\xf5o\xf2\xb6-zE@\xdf\x80\xe0;{\x98-@',2014-09-25 22:34:10,left_only
120,142,1587 Sullana Lane,NaN,Inner Mongolia,207,85769,468060467018,"b'\x00\x00\x00\x00\x01\x01\x00\x00\x00\x87\x0c\xf5\x05\xbe\xe9[@t""f\x9b\xc0gD@'",2014-09-25 22:30:35,left_only
121,417,791 Salinas Street,NaN,Punjab,208,40509,129953030512,b'\x00\x00\x00\x00\x01\x01\x00\x00\x00W\x9e\x9b\x91\x1c\xfaR@u\xd2V\x80J\x88?@',2014-09-25 22:31:17,left_only
122,353,381 Kabul Way,NaN,Taipei,209,87272,55477302294,b'\x00\x00\x00\x00\x01\x01\x00\x00\x00\x00\x00\x00\x00\x00\x00\x00\x00\x00\x00\x00\x00\x00\x00\x00\x00',2014-09-25 22:33:15,left_only
123,557,1407 Pachuca de Soto Place,NaN,Rio Grande do Sul,21,26284,380077794770,b'\x00\x00\x00\x00\x01\x01\x00\x00\x00\xa3\xce\xdcC\xc2\x84I\xc0`\x82\t\x92-\xfd=\xc0',2014-09-25 22:30:14,left_only
124,389,500 Lincoln Parkway,NaN,Ji´angsu,210,95509,550306965159,b'\x00\x00\x00\x00\x01\x01\x00\x00\x00<9\x9e*:\xc1]@D\tD\x99W\xcb@@',2014-09-25 22:30:35,left_only
125,140,788 Atšinsk Street,NaN,Karnataka,211,81691,146497509724,b'\x00\x00\x00\x00\x01\x01\x00\x00\x00\x00\x00\x80\x1b\x19\x98\xc6AW\xa9E\xe9w\xe6.@',2014-09-25 22:31:17,left_only
126,588,966 Asunción Way,NaN,Hidalgo,212,62703,995527378381,b'\x00\x00\x00\x00\x01\x01\x00\x00\x00\xeb\xbdB0\xd8\x9aX\xc0\xe3\x062\xf1\xfd#5@',2014-09-25 22:32:07,left_only
127,112,1002 Ahmadnagar Manor,NaN,Mxico,213,93026,371490777743,b'\x00\x00\x00\x00\x01\x01\x00\x00\x00\x00\x00\x00\x00\x00\x00\x00\x00\x00\x00\x00\x00\x00\x00\x00\x00',2014-09-25 22:32:07,left_only
128,571,1746 Faaa Way,NaN,Huánuco,214,32515,863080561151,b'\x00\x00\x00\x00\x01\x01\x00\x00\x00\x00\x00\x00\x00\x00\x00\x00\x00\x00\x00\x00\x00\x00\x00\x00\x00',2014-09-25 22:32:33,left_only
129,315,543 Bergamo Avenue,NaN,Minas Gerais,215,59686,103602195112,b'\x00\x00\x00\x00\x01\x01\x00\x00\x00\x00\x00\x00\x00\x00\x00\x00\x00\x00\x00\x00\x00\x00\x00\x00\x00',2014-09-25 22:30:18,left_only
130,237,1736 Cavite Place,NaN,Qina,216,98775,431770603551,b'\x00\x00\x00\x00\x01\x01\x00\x00\x00\x00\x00\x00\x00\x00\x00\x00\x00\x00\x00\x00\x00\x00\x00\x00\x00',2014-09-25 22:30:56,left_only
131,84,1888 Kabul Drive,NaN,Oyo & Osun,217,20936,701457319790,b'\x00\x00\x00\x00\x01\x01\x00\x00\x00\x00\x00\x00\x00\x00\x00\x00\x00\x00\x00\x00\x00\x00\x00\x00\x00',2014-09-25 22:32:24,left_only
132,202,955 Bamenda Way,NaN,Ondo & Ekiti,218,1545,768481779568,b'\x00\x00\x00\x00\x01\x01\x00\x00\x00\x00\x00\x00\x00\x00\x00\x00\x00\x00\x00\x00\x00\x00\x00\x00\x00',2014-09-25 22:32:24,left_only
133,586,951 Springs Lane,NaN,Central Mindanao,219,96115,165164761435,b'\x00\x00\x00\x00\x01\x01\x00\x00\x00\x00\x00\x00\x00\x00\x00\x00\x00\x00\x00\x00\x00\x00\x00\x00\x00',2014-09-25 22:32:37,left_only
134,229,1014 Loja Manor,NaN,Tamil Nadu,22,66851,460795526514,b'\x00\x00\x00\x00\x01\x01\x00\x00\x00\x80>6nV\nT@\xa1!-\xdfD2*@',2014-09-25 22:31:10,left_only
135,107,1177 Jelets Way,NaN,Kwara & Kogi,220,3305,484292626944,"b'\x00\x00\x00\x00\x01\x01\x00\x00\x00\x17gg,\xf57\x12@~>%B~\x19!@'",2014-09-25 22:32:24,left_only
136,354,953 Hodeida Street,NaN,Southern Tagalog,221,18841,53912826864,b'\x00\x00\x00\x00\x01\x01\x00\x00\x00\x00\x00\x00\x00\x00\x00\x00\x00\x00\x00\x00\x00\x00\x00\x00\x00',2014-09-25 22:32:37,left_only
137,283,457 Tongliao Loop,NaN,Bursa,222,56254,880756161823,b'\x00\x00\x00\x00\x01\x01\x00\x00\x00\x00\x00\x00\x00\x00\x00\x00\x00\x00\x00\x00\x00\x00\x00\x00\x00',2014-09-25 22:33:25,left_only
138,175,316 Uruapan Street,NaN,Perak,223,58194,275788967899,"b""\x00\x00\x00\x00\x01\x01\x00\x00\x00Z6)\xbbOEY@\n\xc5\xb1\x89'V\x12@""",2014-09-25 22:31:59,left_only
139,525,1949 Sanya Street,NaN,Gumma,224,61244,132100972047,b'\x00\x00\x00\x00\x01\x01\x00\x00\x00\x94?)\xa4\x06ia@\xe4\xca\x8f\xae\x88(B@',2014-09-25 22:31:47,left_only
140,110,1867 San Juan Bautista Tuxtepec Avenue,NaN,Ivanovo,225,78311,547003310357,b'\x00\x00\x00\x00\x01\x01\x00\x00\x00\xbcm\xf0\xcfV|D@\xe2\xb04\xf0\xa3\x7fL@',2014-09-25 22:32:48,left_only
141,244,1148 Saarbrücken Parkway,NaN,Fukushima,226,1921,137773001988,"b'\x00\x00\x00\x00\x01\x01\x00\x00\x00\xad\x8a\xcbLD\x9ca@S\xf8""\x90\x01\x87B@'",2014-09-25 22:31:47,left_only
142,58,1964 Allappuzha (Alleppey) Street,NaN,Yamaguchi,227,48980,920811325222,b'\x00\x00\x00\x00\x01\x01\x00\x00\x00\xc2W*^\x1b\x87`@\xd1\x9az8\xdc\x14A@',2014-09-25 22:31:47,left_only
143,401,168 Cianjur Manor,NaN,Saitama,228,73824,679095087143,b'\x00\x00\x00\x00\x01\x01\x00\x00\x00\xde\xa9%\xc2\xebua@2\x00Tq\xe3\xf9A@',2014-09-25 22:31:48,left_only
144,396,767 Pyongyang Drive,NaN,Osaka,229,83536,667736124769,b'\x00\x00\x00\x00\x01\x01\x00\x00\x00\x14\x9a\x7fO\xc7\xea`@\xa0$\x13\xa6\xde/A@',2014-09-25 22:31:48,left_only
145,420,992 Klerksdorp Loop,NaN,Utrecht,23,33711,855290087237,b'\x00\x00\x00\x00\x01\x01\x00\x00\x00\xc1\xdf\xd4\xac\xd8\x8c\x15@O\xdc;\xb4\xd9\x13J@',2014-09-25 22:32:19,left_only
146,413,692 Amroha Drive,NaN,Northern,230,35575,359478883004,"b""\x00\x00\x00\x00\x01\x01\x00\x00\x00'd\x8c\xb4y\x00T@\x98\xe7wP?V#@""",2014-09-25 22:33:10,left_only
147,64,81 Hodeida Way,NaN,Rajasthan,231,55561,250767749542,b'\x00\x00\x00\x00\x01\x01\x00\x00\x00\n\t\xbd\xa3k\xf2R@\xf8\xb18Rl\xeb:@',2014-09-25 22:31:17,left_only
148,157,456 Escobar Way,NaN,Jakarta Raya,232,36061,719202533520,b'\x00\x00\x00\x00\x01\x01\x00\x00\x00\xdd\xc2\xa9\xc5\x16\xb6Z@\x95\xcc\xfbI\xc6\xdb\x18\xc0',2014-09-25 22:31:33,left_only
149,238,346 Skikda Parkway,NaN,Hawalli,233,90628,630424482919,b'\x00\x00\x00\x00\x01\x01\x00\x00\x00\x00\x00\x00\x00\x00\x00\x00\x00\x00\x00\x00\x00\x00\x00\x00\x00',2014-09-25 22:31:57,left_only
150,334,1816 Bydgoszcz Loop,NaN,Dhaka,234,64308,965273813662,"b""\x00\x00\x00\x00\x01\x01\x00\x00\x00\xa7\x17\xc6'\xae|V@\x80\xbd\x1d<n\xeb8@""",2014-09-25 22:30:12,left_only
151,226,810 Palghat (Palakkad) Boulevard,NaN,Jaroslavl,235,73431,516331171356,b'\x00\x00\x00\x00\x01\x01\x00\x00\x00i\xd4\x8d\xc1\xd4\xefC@\x02\x94\xd0\xa7\x9f\xd0L@',2014-09-25 22:32:49,left_only
152,132,1050 Garden Grove Avenue,NaN,Slaskie,236,4999,973047364353,b'\x00\x00\x00\x00\x01\x01\x00\x00\x00\x00\x00\x00\x00\x00\x00\x00\x00\x00\x00\x00\x00\x00\x00\x00\x00',2014-09-25 22:32:42,left_only
153,53,725 Isesaki Place,NaN,Mekka,237,74428,876295323994,b'\x00\x00\x00\x00\x01\x01\x00\x00\x00!3aEW\x99C@a\xeb\x08\x96\xd9\x8a5@',2014-09-25 22:33:00,left_only
154,104,1913 Kamakura Place,NaN,Lipetsk,238,97287,942570536750,b'\x00\x00\x00\x00\x01\x01\x00\x00\x00\x00\x00\x00\x00\x00\x00\x00\x00\x00\x00\x00\x00\x00\x00\x00\x00',2014-09-25 22:32:49,left_only
155,36,176 Mandaluyong Place,NaN,Uttar Pradesh,239,65213,627705991774,b'\x00\x00\x00\x00\x01\x01\x00\x00\x00s0\x9b\x00C\xa5S@\x9e:\xa0\xb6Wt9@',2014-09-25 22:31:17,left_only
156,540,949 Allende Lane,NaN,Uttar Pradesh,24,67521,122981120653,b'\x00\x00\x00\x00\x01\x01\x00\x00\x00\x8c\x91\xdb\xe5\x11\x9eS@9\xa8\xb3I4\xe7<@',2014-09-25 22:31:11,left_only
157,172,475 Atšinsk Way,NaN,Gansu,240,59571,201705577290,b'\x00\x00\x00\x00\x01\x01\x00\x00\x00xr\x97\x0eg\x8cY@UD\x97\x81\x14@C@',2014-09-25 22:30:36,left_only
158,600,1837 Kaduna Parkway,NaN,Inner Mongolia,241,82580,640843562301,b'\x00\x00\x00\x00\x01\x01\x00\x00\x00\xd6\x1aJ\xed\xc5F\@\x0ed\xe2\xfb\x87\x83D@',2014-09-25 22:30:37,left_only
159,601,844 Bucuresti Place,NaN,Liaoning,242,36603,935952366111,b'\x00\x00\x00\x00\x01\x01\x00\x00\x00\xb8\x80\x86\xed\xddm^@|\xed\x99%\x01\x8dC@',2014-09-25 22:30:37,left_only
160,228,60 Poços de Caldas Street,NaN,Rajasthan,243,82338,963063788669,b'\x00\x00\x00\x00\x01\x01\x00\x00\x00i\xee\xd7Sa@R@y`[\x9a\xb6D:@',2014-09-25 22:31:18,left_only
161,476,270 Tambaram Parkway,NaN,Gauteng,244,9668,248446668735,b'\x00\x00\x00\x00\x01\x01\x00\x00\x00[U@\xeb+\x0b<@\x82A-a\xc83:\xc0',2014-09-25 22:33:03,left_only
162,509,786 Matsue Way,NaN,Illinois,245,37469,111177206479,b'\x00\x00\x00\x00\x01\x01\x00\x00\x00\x0f;\x9duW\x05V\xc0\xfa\x91\xc7x9\xc3D@',2014-09-25 22:33:54,left_only
163,587,760 Miyakonojo Drive,NaN,Guerrero,246,64682,294449058179,b'\x00\x00\x00\x00\x01\x01\x00\x00\x00\x00\x00\x00\x00\x00\x00\x00\x00\x00\x00\x00\x00\x00\x00\x00\x00',2014-09-25 22:32:08,left_only
164,51,686 Garland Manor,NaN,Cear,247,52535,69493378813,b'\x00\x00\x00\x00\x01\x01\x00\x00\x00\x00\x00\x00\x00\x00\x00\x00\x00\x00\x00\x00\x00\x00\x00\x00\x00',2014-09-25 22:30:19,left_only
165,597,32 Liaocheng Way,NaN,Minas Gerais,248,1944,410877354933,b'\x00\x00\x00\x00\x01\x01\x00\x00\x00\xc2u{\xff\xd5\xacE\xc0BO\x142\xa1\xc35\xc0',2014-09-25 22:30:19,left_only
166,440,722 Bradford Lane,NaN,Shandong,249,90920,746251338300,b'\x00\x00\x00\x00\x01\x01\x00\x00\x00e>{\x89\x0c\xb5]@x\xa0\xa92\xe7\x95A@',2014-09-25 22:30:37,left_only
167,312,1354 Siegen Street,NaN,Rio de Janeiro,25,80184,573441801529,b'\x00\x00\x00\x00\x01\x01\x00\x00\x00\x91F\x05N\xb6(F\xc0\xfc\xa0\xd3\x98\xb5\x017\xc0',2014-09-25 22:30:15,left_only
168,374,433 Florencia Street,NaN,Chihuahua,250,91330,561729882725,b'\x00\x00\x00\x00\x01\x01\x00\x00\x00\x00\x00\x00\x00\x00\x00\x00\x00\x00\x00\x00\x00\x00\x00\x00\x00',2014-09-25 22:32:08,left_only
169,222,1168 Najafabad Parkway,NaN,Kabol,251,40301,886649065861,b'\x00\x00\x00\x00\x01\x01\x00\x00\x00\x91s\xac\x9c\x07KQ@\x8e\xbd\xcd\xd1\x99CA@',2014-09-25 22:29:59,left_only
170,22,320 Brest Avenue,NaN,Kaduna,252,43331,747791594069,b'\x00\x00\x00\x00\x01\x01\x00\x00\x00m4%\xfe\xcd\xc0\x1d@b?\xd52c\x0b%@',2014-09-25 22:32:25,left_only
171,167,1287 Xi´angfan Boulevard,NaN,Gifu,253,57844,819416131190,b'\x00\x00\x00\x00\x01\x01\x00\x00\x00j\xe5\x14\xd3\xbb\x1ba@\x81A\xd2\xa7U\xb5A@',2014-09-25 22:31:48,left_only
172,306,1883 Maikop Lane,NaN,Kaliningrad,254,68469,96110042435,b'\x00\x00\x00\x00\x01\x01\x00\x00\x00 \xdf\x94\xa8\xcd\x824@\x15\xd9\x18\x85nZK@',2014-09-25 22:32:50,left_only
173,275,906 Goiânia Way,NaN,Wielkopolskie,255,83565,701767622697,b'\x00\x00\x00\x00\x01\x01\x00\x00\x00\x7f\xa2\xb2aM\x172@@d6mk\xe1I@',2014-09-25 22:32:42,left_only
174,83,586 Tete Way,NaN,Kanagawa,256,1079,18581624103,"b'\x00\x00\x00\x00\x01\x01\x00\x00\x00x;\x0c\xf7\x9bqa@\xe9m""\xe9\x89\xa7A@'",2014-09-25 22:31:48,left_only
175,35,33 Gorontalo Way,NaN,West Bengali,257,30348,745994947458,b'\x00\x00\x00\x00\x01\x01\x00\x00\x00\x1a\x82\x88y\xfb\x17V@aXY6\xce\xab6@',2014-09-25 22:31:18,left_only
176,391,1793 Meixian Place,NaN,Hmelnytskyi,258,33535,619966287415,b'\x00\x00\x00\x00\x01\x01\x00\x00\x00\x00\x00\x00\x00\x00\x00\x00\x00\x00\x00\x00\x00\x00\x00\x00\x00',2014-09-25 22:33:31,left_only
177,515,886 Tonghae Place,NaN,Volgograd,259,19450,711928348157,b'\x00\x00\x00\x00\x01\x01\x00\x00\x00\x00\x00\x00\x00\x00\x00\x00\x00\x00\x00\x00\x00\x00\x00\x00\x00',2014-09-25 22:32:50,left_only
178,233,356 Olomouc Manor,NaN,Gois,26,93323,22326410776,b'\x00\x00\x00\x00\x01\x01\x00\x00\x00\x00\x00\x00\x00\x00\x00\x00\x00\x00\x00\x00\x00\x00\x00\x00\x00',2014-09-25 22:30:15,left_only
179,553,1421 Quilmes Lane,NaN,Ishikawa,260,19151,135407755975,b'\x00\x00\x00\x00\x01\x01\x00\x00\x00\x8f\x9f2\xa3\x04\x14a@S\xae\xf0.\x17LB@',2014-09-25 22:31:49,left_only
180,497,1013 Tabuk Boulevard,NaN,West Bengali,261,96203,158399646978,b'\x00\x00\x00\x00\x01\x01\x00\x00\x00]\x1b\x85\x7fl\x1bV@y;\xc2i\xc1\xf56@',2014-09-25 22:31:19,left_only
181,313,1191 Sungai Petani Boulevard,NaN,Missouri,262,9668,983259819766,b'\x00\x00\x00\x00\x01\x01\x00\x00\x00U\x89\rq\x07\xa5W\xc0\xcbud\xf6\xc3\x8cC@',2014-09-25 22:33:54,left_only
182,279,1884 Shikarpur Avenue,NaN,Haryana,263,85548,959949395183,"b'\x00\x00\x00\x00\x01\x01\x00\x00\x00,\xe3\x95\xdaA?S@\xebF\x0e\xc7\xa9\xb0=@'",2014-09-25 22:31:19,left_only
183,424,1948 Bayugan Parkway,NaN,Bihar,264,60622,987306329957,b'\x00\x00\x00\x00\x01\x01\x00\x00\x00v\x13!\x1a\x82\xe4U@\xd6\x85\xc4\xe2\xdc\x899@',2014-09-25 22:31:19,left_only
184,382,220 Hidalgo Drive,NaN,Kermanshah,265,45298,342720754566,b'\x00\x00\x00\x00\x01\x01\x00\x00\x00Nz\x84?h\x88G@\x08`^\xdb6(A@',2014-09-25 22:31:37,left_only
185,147,374 Bat Yam Boulevard,NaN,Kilis,266,97700,923261616249,b'\x00\x00\x00\x00\x01\x01\x00\x00\x00\x18O\xf3D\xc6\x8eB@\xfdU\xdb\xa8\xa9[B@',2014-09-25 22:33:26,left_only
186,23,1417 Lancaster Avenue,NaN,Northern Cape,267,72192,272572357893,"b""\x00\x00\x00\x00\x01\x01\x00\x00\x00\xfe\xe8\xe5\xc1'\xc38@M\xedV\xe0u\xbb<\xc0""",2014-09-25 22:33:03,left_only
187,103,588 Vila Velha Manor,NaN,Kyongsangbuk,268,51540,333339908719,b'\x00\x00\x00\x00\x01\x01\x00\x00\x00\x00\x00\x00\x00\x00\x00\x00\x00\x00\x00\x00\x00\x00\x00\x00\x00',2014-09-25 22:33:07,left_only
188,331,1016 Iwakuni Street,NaN,St George,269,49833,961370847344,b'\x00\x00\x00\x00\x01\x01\x00\x00\x00\xa1\xdc\x11\xa9\xc4\x9cN\xc0\xd1\x1b\x93jDQ*@',2014-09-25 22:32:59,left_only
189,49,1718 Valencia Street,NaN,Antofagasta,27,37359,675292816413,b'\x00\x00\x00\x00\x01\x01\x00\x00\x00~\x82\xd5\xa2O\x99Q\xc0\xc4kM\xa9\x01\xa77\xc0',2014-09-25 22:30:29,left_only
190,183,1089 Iwatsuki Avenue,NaN,Kirov,270,35109,866092335135,b'\x00\x00\x00\x00\x01\x01\x00\x00\x00\x00\x00\x00\x00\x00\x00\x00\x00\x00\x00\x00\x00\x00\x00\x00\x00',2014-09-25 22:32:50,left_only
191,197,447 Surakarta Loop,NaN,Nyanza,271,10428,940830176580,b'\x00\x00\x00\x00\x01\x01\x00\x00\x00\x00\x00\x00\x00\x00\x00\x00\x00\x00\x00\x00\x00\x00\x00\x00\x00',2014-09-25 22:31:56,left_only
192,443,1836 Korla Parkway,NaN,Copperbelt,272,55405,689681677428,b'\x00\x00\x00\x00\x01\x01\x00\x00\x00\x06BW\xc7\x966<@\xbb~\xc1n\xd8\x9a)\xc0',2014-09-25 22:34:11,left_only
193,113,682 Junan Way,NaN,North West,273,30418,622255216127,b'\x00\x00\x00\x00\x01\x01\x00\x00\x00qF\x83\xca\xae\xaa:@j\xed\xc77%\xda:\xc0',2014-09-25 22:33:04,left_only
194,300,661 Chisinau Lane,NaN,Pietari,274,8856,816436065431,b'\x00\x00\x00\x00\x01\x01\x00\x00\x00\x00\x00\x00\x00\x00\x00\x00\x00\x00\x00\x00\x00\x00\x00\x00\x00',2014-09-25 22:32:51,left_only
195,551,182 Nuku´alofa Drive,NaN,Sumy,275,15414,426346224043,b'\x00\x00\x00\x00\x01\x01\x00\x00\x00y\xf7\x11\t\xf0\x99@@U\xbb\xcb\xea\xc2\x9eI@',2014-09-25 22:33:32,left_only
196,406,454 Patiala Lane,NaN,Fukushima,276,13496,794553031307,b'\x00\x00\x00\x00\x01\x01\x00\x00\x00\xec=KFD\x8ca@\x910g\x11\xe5\xbbB@',2014-09-25 22:31:49,left_only
197,288,226 Halifax Street,NaN,Xinxiang,277,58492,790651020929,b'\x00\x00\x00\x00\x01\x01\x00\x00\x00\x00\x00\x00\x00\x00\x00\x00\x00\x00\x00\x00\x00\x00\x00\x00\x00',2014-09-25 22:30:38,left_only
198,398,954 Lapu-Lapu Way,NaN,Moskova,278,8816,737229003916,b'\x00\x00\x00\x00\x01\x01\x00\x00\x00\x00\x00\x00\x00\x00\x00\x00\x00\x00\x00\x00\x00\x00\x00\x00\x00',2014-09-25 22:32:51,left_only
199,294,1912 Allende Manor,NaN,Kowloon and New Kowl,279,58124,172262454487,b'\x00\x00\x00\x00\x01\x01\x00\x00\x00\x00\x00\x00\x00\x00\x00\x00\x00\x00\x00\x00\x00\x00\x00\x00\x00',2014-09-25 22:31:09,left_only
200,220,1201 Qomsheh Manor,NaN,Gois,28,21464,873492228462,b'\x00\x00\x00\x00\x01\x01\x00\x00\x00\x00\x00\x00\x00\x00\x00\x00\x00\x00\x00\x00\x00\x00\x00\x00\x00',2014-09-25 22:30:15,left_only
201,11,900 Santiago de Compostela Parkway,NaN,Central Serbia,280,93896,716571220373,b'\x00\x00\x00\x00\x01\x01\x00\x00\x00\x00\x00\x00\x00\x00\x00\x00\x00\x00\x00\x00\x00\x00\x00\x00\x00',2014-09-25 22:34:11,left_only
202,128,848 Tafuna Manor,NaN,Kütahya,281,45142,614935229095,b'\x00\x00\x00\x00\x01\x01\x00\x00\x00\x00\x00\x00\x00\x00\x00\x00\x00\x00\x00\x00\x00\x00\x00\x00\x00',2014-09-25 22:33:27,left_only
203,62,1114 Liepaja Street,NaN,Sarawak,282,69226,212869228936,b'\x00\x00\x00\x00\x01\x01\x00\x00\x00\x04\x7f\xaelU\x95[@\x82\x85\xdd\xc1\x99\xe9\xf8?',2014-09-25 22:32:00,left_only
204,276,1675 Xi´angfan Manor,NaN,Tamil Nadu,283,11763,271149517630,b'\x00\x00\x00\x00\x01\x01\x00\x00\x00B\xb6\x87\x18\n\xd9S@\xeeA\x08\xc8\x97\xec%@',2014-09-25 22:31:20,left_only
205,38,61 Tama Street,NaN,Okayama,284,94065,708403338270,b'\x00\x00\x00\x00\x01\x01\x00\x00\x00\x1fp\x13\xa4\x88\xb8`@g\x06\x96\xc8\xaaJA@',2014-09-25 22:31:49,left_only
206,381,1618 Olomouc Manor,NaN,Kurgan,285,26385,96846695220,b'\x00\x00\x00\x00\x01\x01\x00\x00\x00\xb1iJWUUP@\xea\x8f\xd5R\xe5\xb9K@',2014-09-25 22:32:51,left_only
207,316,746 Joliet Lane,NaN,Kursk,286,94878,688485191923,b'\x00\x00\x00\x00\x01\x01\x00\x00\x00\x85\x94\x9fT\xfb\x17B@\xe0\xdc\xba\xf6`\xdeI@',2014-09-25 22:32:52,left_only
208,537,958 Sagamihara Lane,NaN,Mie,287,88408,427274926505,b'\x00\x00\x00\x00\x01\x01\x00\x00\x00\xbe\xd2\x9e7\xba\x17a@\x9b_\x83tg\x88A@',2014-09-25 22:31:50,left_only
209,493,184 Mandaluyong Street,NaN,Baja California Sur,288,94239,488425406814,b'\x00\x00\x00\x00\x01\x01\x00\x00\x00\x17;+\xb3\xd2\x93[\xc0x\xf6\xf0\xc0[#8@',2014-09-25 22:32:09,left_only
210,93,1926 El Alto Avenue,NaN,Buenos Aires,289,75543,846225459260,b'\x00\x00\x00\x00\x01\x01\x00\x00\x00\xad\x05\xac\x0b.\xfaL\xc0\xc5\xd0\xa0W\xf2uA\xc0',2014-09-25 22:30:05,left_only
211,141,1749 Daxian Place,NaN,Gelderland,29,11044,963369996279,b'\x00\x00\x00\x00\x01\x01\x00\x00\x00\xe4\xce\x96\xbd\xb6\xe0\x17@\x00\xb0\x95+\x17\x1cJ@',2014-09-25 22:32:20,left_only
212,442,1245 Ibirité Way,NaN,La Romana,290,40926,331888642162,"b'\x00\x00\x00\x00\x01\x01\x00\x00\x00mY\xbe.C>Q\xc0O\xc8s""fm2@'",2014-09-25 22:30:54,left_only
213,155,1560 Jelets Boulevard,NaN,Shandong,291,77777,189446090264,b'\x00\x00\x00\x00\x01\x01\x00\x00\x00\x18\xd5}[\x0bj]@\xad\xda5!\xad\x18B@',2014-09-25 22:30:38,left_only
214,116,793 Cam Ranh Avenue,NaN,California,292,87057,824370924746,b'\x00\x00\x00\x00\x01\x01\x00\x00\x00\x03\xaf;\x82\xc0\x88]\xc0a\x02\x12\xa8YYA@',2014-09-25 22:33:55,left_only
215,427,1557 Cape Coral Parkway,NaN,Hubei,293,46875,368284120423,b'\x00\x00\x00\x00\x01\x01\x00\x00\x004\xcc\x1a\x06\xbd\xea[@-Z%\xfdb1@@',2014-09-25 22:30:38,left_only
216,248,582 Papeete Loop,NaN,Central Visayas,294,27722,569868543137,b'\x00\x00\x00\x00\x01\x01\x00\x00\x00\x1f\x18\x9b\xb1\xc3\xfc^@}\xc4\xf9\xe5\xdd\x9e$@',2014-09-25 22:32:38,left_only
217,10,1795 Santiago de Compostela Way,NaN,Texas,295,18743,860452626434,b'\x00\x00\x00\x00\x01\x01\x00\x00\x00PP/\x9d{\xe0X\xc0\xd0\xcfy2\xa4\x81;@',2014-09-25 22:33:55,left_only
218,604,1331 Usak Boulevard,NaN,Vaud,296,61960,145308717464,"b""\x00\x00\x00\x00\x01\x01\x00\x00\x00\xce'<\xb2\x03\x88\x1a@ W4\xe7*BG@""",2014-09-25 22:33:14,left_only
219,166,1740 Le Mans Loop,NaN,Pays de la Loire,297,22853,168476538960,b'\x00\x00\x00\x00\x01\x01\x00\x00\x00E*\x8c-\x04\xb9\xd2?\x00\x00\x00j\xb8-\xbdA',2014-09-25 22:31:01,left_only
220,272,1762 Paarl Parkway,NaN,Hunan,298,53928,192459639410,b'\x00\x00\x00\x00\x01\x01\x00\x00\x00g3=\x17|\xdb[@\xdb\xa8\xa9\xc0$\xb0;@',2014-09-25 22:30:39,left_only
221,575,1052 Pathankot Avenue,NaN,Sichuan,299,77397,128499386727,"b'\x00\x00\x00\x00\x01\x01\x00\x00\x00\xaa\x05@&\xe3\xf0Y@\xcc\xc1""u\xf1\x8f=@'",2014-09-25 22:30:39,left_only
222,457,535 Ahmadnagar Manor,NaN,Abu Dhabi,3,41136,985109775584,b'\x00\x00\x00\x00\x01\x01\x00\x00\x00\xd3\xe6\xee)\xef.K@\x99\xc6\xe5.xw8@',2014-09-25 22:33:34,left_only
223,81,1692 Ede Loop,NaN,São Paulo,30,9223,918711376618,b'\x00\x00\x00\x00\x01\x01\x00\x00\x00\x00\x00\x00\x00\x00\x00\x00\x00\x00\x00\x00\x00\x00\x00\x00\x00',2014-09-25 22:30:16,left_only
224,1,47 MySakila Drive,NaN,Alberta,300,NaN,NaN,b'\x00\x00\x00\x00\x01\x01\x00\x00\x00>\n2]c4\\xc0v\x1f\xdb\x8d\x99\xd9H@',2014-09-25 22:30:27,left_only
225,3,23 Workhaven Lane,NaN,Alberta,300,NaN,14033335568,b'\x00\x00\x00\x00\x01\x01\x00\x00\x00\xcd\xc4\x19hc4\\xc0\x1d\xee~p\x99\xd9H@',2014-09-25 22:30:27,left_only
226,478,1078 Stara Zagora Drive,NaN,Aceh,301,69221,932992626595,b'\x00\x00\x00\x00\x01\x01\x00\x00\x004\x05|\xc8\xa5IX@\xd2\xc9\xad\xa4p\xb8\x14@',2014-09-25 22:31:33,left_only
227,133,1854 Tieli Street,NaN,Shandong,302,15819,509492324775,b'\x00\x00\x00\x00\x01\x01\x00\x00\x00z\x82\x0e\x04\x92\xfe\@\x8f\x04u%]:B@',2014-09-25 22:30:39,left_only
228,27,1780 Hino Boulevard,NaN,Liepaja,303,7716,902731229323,"b'\x00\x00\x00\x00\x01\x01\x00\x00\x006\x0f\x16\x04E\x045@<\xa3\xadJ""BL@'",2014-09-25 22:31:58,left_only
229,170,710 San Felipe del Progreso Avenue,NaN,Lilongwe,304,76901,843801144113,b'\x00\x00\x00\x00\x01\x01\x00\x00\x00\x89\xc8U\xd1\xc4\xe4@@P\x1d\x06N\x11\xef+\xc0',2014-09-25 22:31:59,left_only
230,126,1175 Tanauan Way,NaN,Lima,305,64615,937222955822,b'\x00\x00\x00\x00\x01\x01\x00\x00\x00\x84\x8a`\xd2\xceAS\xc0\xe5Az\x8a\x1c\x16(\xc0',2014-09-25 22:32:33,left_only
231,67,1214 Hanoi Way,NaN,Nebraska,306,67055,491001136577,b'\x00\x00\x00\x00\x01\x01\x00\x00\x00\xd6g\x18\x88\xaf*X\xc0\xc0\xe2\x15-\xe5hD@',2014-09-25 22:33:56,left_only
232,163,1440 Compton Place,NaN,North Austria,307,81037,931059836497,b'\x00\x00\x00\x00\x01\x01\x00\x00\x00\x00\x00\x00\x00\x00\x00\x00\x00\x00\x00\x00\x00\x00\x00\x00\x00',2014-09-25 22:30:10,left_only
233,48,1998 Halifax Drive,NaN,Lipetsk,308,76022,177727722820,b'\x00\x00\x00\x00\x01\x01\x00\x00\x00\x87\x98\\xd6\x0e\xc9C@\x9f\x178\xea2MJ@',2014-09-25 22:32:54,left_only
234,547,379 Lublin Parkway,NaN,Toscana,309,74568,921960450089,b'\x00\x00\x00\x00\x01\x01\x00\x00\x00\x90\x92\rZ\xfe\xa6$@\xcc\x13\xbe\xad\xaa\xc5E@',2014-09-25 22:31:44,left_only
235,40,334 Munger (Monghyr) Lane,NaN,Markazi,31,38145,481183273622,b'\x00\x00\x00\x00\x01\x01\x00\x00\x00sru\xb66\xd8H@K\x95\x834\xbe\x0bA@',2014-09-25 22:31:36,left_only
236,164,1623 Bahía Blanca Manor,NaN,Moskova,310,81511,149981248346,b'\x00\x00\x00\x00\x01\x01\x00\x00\x00\x00\x00\x00\x00\x00\x00\x00\x00\x00\x00\x00\x00\x00\x00\x00\x00',2014-09-25 22:32:54,left_only
237,595,1074 Sanaa Parkway,NaN,Loja,311,22474,154124128457,b'\x00\x00\x00\x00\x01\x01\x00\x00\x00\x92\xdb\xe5\x11\x12\xcdS\xc0\x0e\xf9g\x06\xf1\xf1\x0f\xc0',2014-09-25 22:30:55,left_only
238,517,548 Uruapan Street,NaN,Ontario,312,35653,879347453467,b'\x00\x00\x00\x00\x01\x01\x00\x00\x00\x00\x00\x00\x00\x00\x00\x00\x00\x00\x00\x00\x00\x00\x00\x00\x00',2014-09-25 22:33:38,left_only
239,256,1497 Yuzhou Drive,NaN,England,312,3433,246810237916,b'\x00\x00\x00\x00\x01\x01\x00\x00\x00\xccFB\xb6\x87\x18\xc0\xbf\xca\x82.\x86\x17\xc1I@',2014-09-25 22:33:37,left_only
240,506,414 Mandaluyong Street,NaN,Lubelskie,314,16370,52709222667,b'\x00\x00\x00\x00\x01\x01\x00\x00\x00\x0f\xe6\xc0\xbc\x11\x916@ \xf0\xc0\x00\xc2\xa0I@',2014-09-25 22:32:43,left_only
241,392,514 Ife Way,NaN,Shaba,315,69973,900235712074,b'\x00\x00\x00\x00\x01\x01\x00\x00\x00\x00\x00\x00\x00\x00\x00\x00\x00\x00\x00\x00\x00\x00\x00\x00\x00',2014-09-25 22:30:53,left_only
242,34,1668 Anápolis Street,NaN,Taipei,316,50199,525255540978,b'\x00\x00\x00\x00\x01\x01\x00\x00\x00\x00\x00\x00\x00\x00\x00\x00\x00\x00\x00\x00\x00\x00\x00\x00\x00',2014-09-25 22:33:15,left_only
243,187,1839 Székesfehérvár Parkway,NaN,Gois,317,55709,947468818183,b'\x00\x00\x00\x00\x01\x01\x00\x00\x00\x00\x00\x00\x00\x00\x00\x00\x00\x00\x00\x00\x00\x00\x00\x00\x00',2014-09-25 22:30:20,left_only
244,505,519 Brescia Parkway,NaN,East Java,318,69504,793996678771,b'\x00\x00\x00\x00\x01\x01\x00\x00\x00\xa3\xc7\x94\xb4\x87\xe1[@\n#\x076\xf8\x84\x1e\xc0',2014-09-25 22:31:33,left_only
245,85,320 Baiyin Parkway,NaN,Mahajanga,319,37307,223664661973,b'\x00\x00\x00\x00\x01\x01\x00\x00\x00\xea\xfd\x90\xc8\x88(G@\xcd\xc7Z\xe8\xefn/\xc0',2014-09-25 22:31:59,left_only
246,365,1009 Zanzibar Lane,NaN,Arecibo,32,64875,102396298916,b'\x00\x00\x00\x00\x01\x01\x00\x00\x00\xfb\xbd^\xab\xce\xadP\xc0\xe9xq\x87\xf2x2@',2014-09-25 22:32:45,left_only
247,351,1157 Nyeri Loop,NaN,Adygea,320,56380,262744791493,"b'\x00\x00\x00\x00\x01\x01\x00\x00\x00\xac\x91\xb8""\x8c\rD@\xeb\xd1\n\xc2\xcbMF@'",2014-09-25 22:32:55,left_only
248,70,1150 Kimchon Manor,NaN,Skne ln,321,96109,663449333709,b'\x00\x00\x00\x00\x01\x01\x00\x00\x00\x00\x00\x00\x00\x00\x00\x00\x00\x00\x00\x00\x00\x00\x00\x00\x00',2014-09-25 22:33:11,left_only
249,387,401 Sucre Boulevard,NaN,New Hampshire,322,25007,486395999608,b'\x00\x00\x00\x00\x01\x01\x00\x00\x00\x81\x7f\xa5N\x1b\xddQ\xc0\x13q\x84Vq\x7fE@',2014-09-25 22:33:56,left_only
250,268,1831 Nam Dinh Loop,NaN,National Capital Reg,323,51990,322888976727,b'\x00\x00\x00\x00\x01\x01\x00\x00\x00\x00\x00\x00\x00\x00\x00\x00\x00\x00\x00\x00\x00\x00\x00\x00\x00',2014-09-25 22:32:38,left_only
251,227,1820 Maringá Parkway,NaN,Punjab,324,88307,99760893676,b'\x00\x00\x00\x00\x01\x01\x00\x00\x00\x1e\x05>\xf5\xfe^R@laq\x93\xacJ@@',2014-09-25 22:32:30,left_only
252,200,1074 Binzhou Manor,NaN,Baden-Wrttemberg,325,36490,331132568928,b'\x00\x00\x00\x00\x01\x01\x00\x00\x00\x00\x00\x00\x00\x00\x00\x00\x00\x00\x00\x00\x00\x00\x00\x00\x00',2014-09-25 22:31:05,left_only
253,458,138 Caracas Boulevard,NaN,Zulia,326,16790,974433019532,b'\x00\x00\x00\x00\x01\x01\x00\x00\x00\x00\x00\x00\x00\x00\x00\x00\x00\x00\x00\x00\x00\x00\x00\x00\x00',2014-09-25 22:34:04,left_only
254,24,1688 Okara Way,NaN,Nothwest Border Prov,327,21954,144453869132,b'\x00\x00\x00\x00\x01\x01\x00\x00\x00\x00\x00\x00\x00\x00\x00\x00\x00\x00\x00\x00\x00\x00\x00\x00\x00',2014-09-25 22:32:30,left_only
255,250,829 Grand Prairie Way,NaN,Paraná,328,6461,741070712873,b'\x00\x00\x00\x00\x01\x01\x00\x00\x00\x00\x00\x00\x00\x00\x00\x00\x00\x00\x00\x00\x00\x00\x00\x00\x00',2014-09-25 22:30:20,left_only
256,13,613 Korolev Drive,NaN,Masqat,329,45844,380657522649,"b""\x00\x00\x00\x00\x01\x01\x00\x00\x00\x01\x021d\xd0KM@\xce\xac\x00:'\x9d7@""",2014-09-25 22:32:29,left_only
257,310,913 Coacalco de Berriozábal Loop,NaN,Texas,33,42141,262088367001,b'\x00\x00\x00\x00\x01\x01\x00\x00\x00#7\x1e\xc7\xeaFX\xc0\xa8hQD+^@@',2014-09-25 22:33:43,left_only
258,181,146 Johannesburg Way,NaN,Tamaulipas,330,54132,953689007081,b'\x00\x00\x00\x00\x01\x01\x00\x00\x00<E\xb3WD`X\xc0\xea\xd6!\xed5\xe19@',2014-09-25 22:32:09,left_only
259,360,619 Huánuco Avenue,NaN,Shimane,331,81508,142596392389,b'\x00\x00\x00\x00\x01\x01\x00\x00\x00\xa0\x9a\xdc9\x9e\xa1`@[\x1dJ\xfeq\xbcA@',2014-09-25 22:31:50,left_only
260,94,1952 Chatsworth Drive,NaN,Guangdong,332,25958,991562402283,b'\x00\x00\x00\x00\x01\x01\x00\x00\x00\xa5\xf3\x86\xa0\x8f\x08]@m\xf6QW\x88Z8@',2014-09-25 22:30:40,left_only
261,185,682 Garden Grove Place,NaN,Tennessee,333,67497,72136330362,"b'\x00\x00\x00\x00\x01\x01\x00\x00\x00B\x04\xc1\x88""\x83V\xc0kO$\xf3#\x93A@'",2014-09-25 22:33:57,left_only
262,111,1532 Dzerzinsk Way,NaN,Buenos Aires,334,9599,330838016880,b'\x00\x00\x00\x00\x01\x01\x00\x00\x00\xbf\x93\xbbt8]M\xc0\xe2\x07B\r:UA\xc0',2014-09-25 22:30:06,left_only
263,348,785 Vaduz Street,NaN,Baja California,335,36170,895616862749,b'\x00\x00\x00\x00\x01\x01\x00\x00\x00\ra\xeb\x08\x16\xdd\\xc0}\xb3(G\P@@',2014-09-25 22:32:10,left_only
264,321,651 Pathankot Loop,NaN,Maharashtra,336,59811,139378397418,b'\x00\x00\x00\x00\x01\x01\x00\x00\x00!\x98\xfe\x80b\xa9R@\x8a\xc1h\xfb\xfc\xd20@',2014-09-25 22:31:20,left_only
265,496,775 Šostka Drive,NaN,al-Daqahliya,337,22358,171973024401,b'\x00\x00\x00\x00\x01\x01\x00\x00\x00\xfcM\xcd\x8aMB?@>\xdf`\xb9\xef\xb6>@',2014-09-25 22:30:57,left_only
266,258,752 Ondo Loop,NaN,Miyazaki,338,32474,134673576619,"b'\x00\x00\x00\x00\x01\x01\x00\x00\x00H\xad\x8b6""b`@\x88q\xed\xfa\xbb\xbb?@'",2014-09-25 22:31:50,left_only
267,533,556 Asunción Way,NaN,Mogiljov,339,35364,338244023543,b'\x00\x00\x00\x00\x01\x01\x00\x00\x00km\xd0MQX>@g5\x13\xc2Y\xf5J@',2014-09-25 22:30:13,left_only
268,106,659 Vaduz Drive,NaN,Ha Darom,34,49708,709935135487,b'\x00\x00\x00\x00\x01\x01\x00\x00\x00\x00\x00\x00\x00\x00\x00\x00\x00\x00\x00\x00\x00\x00\x00\x00\x00',2014-09-25 22:31:40,left_only
269,148,1027 Songkhla Manor,NaN,Minsk,340,30861,563660187896,b'\x00\x00\x00\x00\x01\x01\x00\x00\x00\x00\x00\x00\x00\x00\x00\x00\x00\x00\x00\x00\x00\x00\x00\x00\x00',2014-09-25 22:30:13,left_only
270,576,1351 Sousse Lane,NaN,Coahuila de Zaragoza,341,37815,203804046132,"b""\x00\x00\x00\x00\x01\x01\x00\x00\x00j\xb8m\x84\xeaZY\xc0'\xaa\x12\xc0(\xe8:@""",2014-09-25 22:32:10,left_only
271,261,51 Laredo Avenue,NaN,Sagaing,342,68146,884536620568,b'\x00\x00\x00\x00\x01\x01\x00\x00\x00\x87 \xbd\x97\xb1\xc8W@\xd4\xd7\xf35\xcb\x1b6@',2014-09-25 22:32:18,left_only
272,50,46 Pjatigorsk Lane,NaN,Moscow (City),343,23616,262076994845,b'\x00\x00\x00\x00\x01\x01\x00\x00\x00\x9cQ\xf3U\xf2\xc4B@\x02\xe3\xcf\xa6\xd9\xdfK@',2014-09-25 22:32:55,left_only
273,585,1208 Tama Loop,NaN,Ninawa,344,73605,954786054144,b'\x00\x00\x00\x00\x01\x01\x00\x00\x001O\x9d\xfd7\x8fE@\x96\x1e\xf2;\xf2*B@',2014-09-25 22:31:40,left_only
274,135,1752 São Leopoldo Parkway,NaN,Taka-Karpatia,345,14014,252265130067,b'\x00\x00\x00\x00\x01\x01\x00\x00\x00\x00\x00\x00\x00\x00\x00\x00\x00\x00\x00\x00\x00\x00\x00\x00\x00',2014-09-25 22:33:32,left_only
275,32,1425 Shikarpur Manor,NaN,Bihar,346,65599,678220867005,b'\x00\x00\x00\x00\x01\x01\x00\x00\x00\x7f\x9f\x16(N\x9eU@\x82\x01\x84\x0f%`9@',2014-09-25 22:31:20,left_only
276,486,64 Korla Street,NaN,Mwanza,347,25145,510383179153,"b'\x00\x00\x00\x00\x01\x01\x00\x00\x00*(\xfb\x9d\xdc{@@.\xbbq\x9c%""\x04\xc0'",2014-09-25 22:33:17,left_only
277,380,1519 Santiago de los Caballeros Loop,NaN,East Kasai,348,22025,409315295763,b'\x00\x00\x00\x00\x01\x01\x00\x00\x00\x00\x00\x00\x00\x00\x00\x00\x00\x00\x00\x00\x00\x00\x00\x00\x00',2014-09-25 22:30:53,left_only
278,8,1566 Inegöl Manor,NaN,Mandalay,349,53561,705814003527,b'\x00\x00\x00\x00\x01\x01\x00\x00\x00\x06$\x06&\xdc\xd8W@<E\xb3W\xc4u5@',2014-09-25 22:32:18,left_only
279,204,387 Mwene-Ditu Drive,NaN,Ahal,35,8073,764477681869,b'\x00\x00\x00\x00\x01\x01\x00\x00\x00\xb0%?=\x111M@\xa58\xa2\xd6\x8f\xfaB@',2014-09-25 22:33:30,left_only
280,63,1213 Ranchi Parkway,NaN,Karnataka,350,94352,800024380485,"b""\x00\x00\x00\x00\x01\x01\x00\x00\x00\x00\x00\x80'\x9a\xd7\xc6A\xaa!\xbb\x1c\xc0 +@""",2014-09-25 22:31:21,left_only
281,438,596 Huixquilucan Place,NaN,Nampula,351,65892,342709348083,b'\x00\x00\x00\x00\x01\x01\x00\x00\x00\x00\x00\x00\x00\x00\x00\x00\x00\x00\x00\x00\x00\x00\x00\x00\x00',2014-09-25 22:32:17,left_only
282,452,207 Cuernavaca Loop,NaN,Tatarstan,352,52671,782900030287,b'\x00\x00\x00\x00\x01\x01\x00\x00\x00\x00\x00\x00\x00\x00\x00\x00\x00\x00\x00\x00\x00\x00\x00\x00\x00',2014-09-25 22:32:55,left_only
283,44,671 Graz Street,NaN,Oriental,353,94399,680768868518,b'\x00\x00\x00\x00\x01\x01\x00\x00\x00\x83\xf7\xfa\xff\xddw\x07\xc0\xf7\xb7\xbaR\x85\x95A@',2014-09-25 22:32:16,left_only
284,156,1963 Moscow Place,NaN,Assam,354,64863,761379480249,"b'\x00\x00\x00\x00\x01\x01\x00\x00\x00 ;\xb9\xf0M,W@]YX&\xb2Y:@'",2014-09-25 22:31:21,left_only
285,57,17 Kabul Boulevard,NaN,Chiba,355,38594,697760867968,b'\x00\x00\x00\x00\x01\x01\x00\x00\x00\xeb%|\xa5\xe2|a@op\xd8l\x9b\xedA@',2014-09-25 22:31:51,left_only
286,373,1922 Miraj Way,NaN,Esfahan,356,13203,320471479776,b'\x00\x00\x00\x00\x01\x01\x00\x00\x00\x17\x05\x0bq\xf6\xaeI@&#\x1d\xd44Q@@',2014-09-25 22:31:37,left_only
287,241,647 A Coruña (La Coruña) Street,NaN,Chollanam,357,36971,792557457753,b'\x00\x00\x00\x00\x01\x01\x00\x00\x00\x00\x00\x00\x00\x00\x00\x00\x00\x00\x00\x00\x00\x00\x00\x00\x00',2014-09-25 22:33:07,left_only
288,395,1337 Mit Ghamr Avenue,NaN,Nakhon Sawan,358,29810,175283210378,"b'\x00\x00\x00\x00\x01\x01\x00\x00\x00\x9aX\x85r\xc7\x08Y@M#w""\xd2h/@'",2014-09-25 22:33:19,left_only
289,477,1786 Salinas Place,NaN,Nam Ha,359,66546,206060652238,b'\x00\x00\x00\x00\x01\x01\x00\x00\x00D\xbd\x85\x1a*~Z@\xc2\xdb\x83\x10\x90\x8d4@',2014-09-25 22:34:07,left_only
290,483,632 Usolje-Sibirskoje Parkway,NaN,Ha Darom,36,73085,667648979883,b'\x00\x00\x00\x00\x01\x01\x00\x00\x00\x00\x00\x00\x00\x00\x00\x00\x00\x00\x00\x00\x00\x00\x00\x00\x00',2014-09-25 22:31:41,left_only
291,388,368 Huánuco Boulevard,NaN,Namibe,360,17165,106439158941,b'\x00\x00\x00\x00\x01\x01\x00\x00\x00\xb5\x85\x8c\xec\xefM(@M\x8e\xf1\x17id.\xc0',2014-09-25 22:30:03,left_only
292,9,53 Idfu Parkway,NaN,Nantou,361,42399,10655648674,b'\x00\x00\x00\x00\x01\x01\x00\x00\x00\x1f\x81?\xfc|*^@5z5@i\xea7@',2014-09-25 22:33:16,left_only
293,41,1440 Fukuyama Loop,NaN,Henan,362,47929,912257250465,"b'\x00\x00\x00\x00\x01\x01\x00\x00\x00^<\xcd\x13\x19""\\@X\x86\xdd\x1cS\x7f@@'",2014-09-25 22:30:40,left_only
294,541,195 Ilorin Street,NaN,Chari-Baguirmi,363,49250,8912935608,b'\x00\x00\x00\x00\x01\x01\x00\x00\x00\x00\x00\x00\x00\x00\x00\x00\x00\x00\x00\x00\x00\x00\x00\x00\x00',2014-09-25 22:30:29,left_only
295,437,1766 Almirante Brown Street,NaN,KwaZulu-Natal,364,63104,617567598243,b'\x00\x00\x00\x00\x01\x01\x00\x00\x00\xfd\xab}\xf0\x90\xee=@H\x8dd\xea\t\xc2;\xc0',2014-09-25 22:33:04,left_only
296,119,1107 Nakhon Sawan Avenue,NaN,Mxico,365,75149,867546627903,b'\x00\x00\x00\x00\x01\x01\x00\x00\x00\x00\x00\x00\x00\x00\x00\x00\x00\x00\x00\x00\x00\x00\x00\x00\x00',2014-09-25 22:32:11,left_only
297,526,617 Klerksdorp Place,NaN,Khanh Hoa,366,94707,574973479129,b'\x00\x00\x00\x00\x01\x01\x00\x00\x00J\x17Q\xc9oL[@2\xf5\x04\xd3z}(@',2014-09-25 22:34:07,left_only
298,52,909 Garland Manor,NaN,Tatarstan,367,69367,705800322606,"b'\x00\x00\x00\x00\x01\x01\x00\x00\x007m\xc6i\x88\xe9I@,\xa8^m{\xd1K@'",2014-09-25 22:32:55,left_only
299,559,1917 Kumbakonam Parkway,NaN,Vojvodina,368,11892,698182547686,b'\x00\x00\x00\x00\x01\x01\x00\x00\x00\x00\x00\x00\x00\x00\x00\x00\x00\x00\x00\x00\x00\x00\x00\x00\x00',2014-09-25 22:34:11,left_only
300,195,1077 San Felipe de Puerto Plata Place,NaN,Rostov-na-Donu,369,65387,812824036424,b'\x00\x00\x00\x00\x01\x01\x00\x00\x00\x00\x00\x00\x00\x00\x00\x00\x00\x00\x00\x00\x00\x00\x00\x00\x00',2014-09-25 22:32:56,left_only
301,230,201 Effon-Alaiye Way,NaN,Asunción,37,64344,684192903087,b'\x00\x00\x00\x00\x01\x01\x00\x00\x00\x00\x00\x00\x00\x00\x00\x00\x00\x00\x00\x00\x00\x00\x00\x00\x00',2014-09-25 22:32:31,left_only
302,349,1516 Escobar Drive,NaN,Tongatapu,370,46069,64536069371,b'\x00\x00\x00\x00\x01\x01\x00\x00\x00\x912\x98uu\xe6e\xc0\xbe\x11\xdd\xb3\xae#5\xc0',2014-09-25 22:33:20,left_only
303,211,850 Salala Loop,NaN,Kitaa,371,10800,403404780639,b'\x00\x00\x00\x00\x01\x01\x00\x00\x00\x00\x00\x00\x00\x00\x00\x00\x00\x00\x00\x00\x00\x00\x00\x00\x00',2014-09-25 22:31:07,left_only
304,368,1658 Jastrzebie-Zdrój Loop,NaN,Central,372,96584,568367775448,b'\x00\x00\x00\x00\x01\x01\x00\x00\x00+s\xa9\x00\xce\xefB@f\x08\x11\xba\x95o\xb9\xbf',2014-09-25 22:31:56,left_only
305,178,1848 Salala Boulevard,NaN,Miranda,373,25220,48265851133,b'\x00\x00\x00\x00\x01\x01\x00\x00\x00m\x08\xe9\x84\xab\xb1P\xc0/\x90\xfb\xb1\xa4;$@',2014-09-25 22:34:04,left_only
306,282,556 Baybay Manor,NaN,Oyo & Osun,374,55802,363982224739,b'\x00\x00\x00\x00\x01\x01\x00\x00\x00\xf5\xc6\xff\xd3\xc3\x0e\x11@\xfc0\xe7\xbeAP @',2014-09-25 22:32:25,left_only
307,404,734 Béchar Place,NaN,Punjab,375,30586,280578750435,b'\x00\x00\x00\x00\x01\x01\x00\x00\x00m;m\x8d\x88\R@\xc4\xa4\t%\xdd\xce>@',2014-09-25 22:32:31,left_only
308,494,591 Sungai Petani Drive,NaN,Okayama,376,46400,37247325001,b'\x00\x00\x00\x00\x01\x01\x00\x00\x00\x19f\xb2\xc9\xeb\xbd`@L\xc0T\xd8\xb1TA@',2014-09-25 22:31:51,left_only
309,370,1565 Tangail Manor,NaN,Okinawa,377,45750,634445428822,b'\x00\x00\x00\x00\x01\x01\x00\x00\x00\xd9LtL\xcc\xaa_@E\xa1\xc0\x96\xb2\xc59@',2014-09-25 22:31:52,left_only
310,270,682 Halisahar Place,NaN,Severn Morava,378,20536,475553436330,b'\x00\x00\x00\x00\x01\x01\x00\x00\x00\x00\x00\x00\x00\x00\x00\x00\x00\x00\x00\x00\x00\x00\x00\x00\x00',2014-09-25 22:30:54,left_only
311,54,115 Hidalgo Parkway,NaN,Khartum,379,80168,307703950263,b'\x00\x00\x00\x00\x01\x01\x00\x00\x00\x04P1s&=@@M\r\xd9\xe5\x00J/@',2014-09-25 22:33:11,left_only
312,7,692 Joliet Street,NaN,Attika,38,83579,448477190408,b'\x00\x00\x00\x00\x01\x01\x00\x00\x00\x07oY\xcfZ\xb77@A\x05\xd1\xa4^\xfdB@',2014-09-25 22:31:07,left_only
313,409,1266 Laredo Parkway,NaN,Saitama,380,7664,1483365694,b'\x00\x00\x00\x00\x01\x01\x00\x00\x00\xfb\xd9~\xe8\xf8sa@;\xa5(<\r\xf4A@',2014-09-25 22:31:52,left_only
314,160,1367 Yantai Manor,NaN,Ondo & Ekiti,381,21294,889538496300,b'\x00\x00\x00\x00\x01\x01\x00\x00\x00\xc2^r\xedUU\x14@\x8az\x1ca\xac\xaa\x1c@',2014-09-25 22:32:26,left_only
315,342,124 al-Manama Way,NaN,Hiroshima,382,52368,647899404952,b'\x00\x00\x00\x00\x01\x01\x00\x00\x00K\xe0{$J\xa7`@{\x0e\xd1\x8dU5A@',2014-09-25 22:31:52,left_only
316,193,891 Novi Sad Manor,NaN,Ontario,383,5379,247646995453,b'\x00\x00\x00\x00\x01\x01\x00\x00\x00^I\xf2\_\xb6S\xc0\xdej\xe7E7\xf3E@',2014-09-25 22:30:28,left_only
317,17,270 Amroha Parkway,NaN,Osmaniye,384,29610,695479687538,b'\x00\x00\x00\x00\x01\x01\x00\x00\x00\x1fClU\xb7\x1fB@\xa1\x14\x08\x96~\x89B@',2014-09-25 22:33:27,left_only
318,480,421 Yaoundé Street,NaN,Sumy,385,11363,726875628268,b'\x00\x00\x00\x00\x01\x01\x00\x00\x00\x00\x00\x00\x00\x00\x00\x00\x00\x00\x00\x00\x00\x00\x00\x00\x00',2014-09-25 22:33:33,left_only
319,290,1336 Benin City Drive,NaN,Shiga,386,46044,341242939532,b'\x00\x00\x00\x00\x01\x01\x00\x00\x00\xd5\x81\x07a\xc9\xfb`@\x1b\x07\xa8\xba\x91\x80A@',2014-09-25 22:31:53,left_only
320,303,898 Jining Lane,NaN,Pohjois-Pohjanmaa,387,40070,161643343536,b'\x00\x00\x00\x00\x01\x01\x00\x00\x00=\xfb\x80\xf6\xd9w9@\xc8\xd0\xb1\x83\xca@P@',2014-09-25 22:31:00,left_only
321,474,1469 Plock Lane,NaN,Galicia,388,95835,622884741180,b'\x00\x00\x00\x00\x01\x01\x00\x00\x00\xfbD\xf9\xdd\xcft\x1f\xc0\xed\x9a\x90\xd6\x18+E@',2014-09-25 22:33:09,left_only
322,285,1006 Santa Bárbara d´Oeste Manor,NaN,Ondo & Ekiti,389,36229,85059738746,b'\x00\x00\x00\x00\x01\x01\x00\x00\x00\xfb\xc6|\xe5\xe6X\x16@S\x1a{@\xea\xc8\x1c@',2014-09-25 22:32:26,left_only
323,402,616 Hagonoy Avenue,NaN,Krasnojarsk,39,46043,604177838256,b'\x00\x00\x00\x00\x01\x01\x00\x00\x00\x00\x00\x00\x00\x00\x00\x00\x00\x00\x00\x00\x00\x00\x00\x00\x00',2014-09-25 22:32:47,left_only
324,254,786 Stara Zagora Way,NaN,Oyo & Osun,390,98332,716256596301,b'\x00\x00\x00\x00\x01\x01\x00\x00\x00\xdbE\xe2/ww\x0f@s\xc8\xbcD\xabi\x1f@',2014-09-25 22:32:27,left_only
325,439,1351 Aparecida de Goiânia Parkway,NaN,Northern Mindanao,391,41775,959834530529,b'\x00\x00\x00\x00\x01\x01\x00\x00\x00\xda\xff\x00kU\xf5^@\x89\x8cX\xd5\xdcO @',2014-09-25 22:32:38,left_only
326,343,1443 Mardan Street,NaN,Western Cape,392,31483,231383037471,"b'\x00\x00\x00\x00\x01\x01\x00\x00\x00\xfb`t\xd4,\xf72@\xb0\xb0;83\xda@\xc0'",2014-09-25 22:33:05,left_only
327,358,1698 Southport Loop,NaN,Hidalgo,393,49009,754358349853,b'\x00\x00\x00\x00\x01\x01\x00\x00\x00z\xb8.F\xee\xaeX\xc0=\xed\x95\x1e\xf2\x1d4@',2014-09-25 22:32:11,left_only
328,46,1632 Bislig Avenue,NaN,Nonthaburi,394,61117,471675840679,b'\x00\x00\x00\x00\x01\x01\x00\x00\x00\x93\Y\xfd\xec\x1fY@\xd5\xd0a\x19v\xd3+@',2014-09-25 22:33:20,left_only
329,273,1519 Ilorin Place,NaN,Kerala,395,49298,357445645426,b'\x00\x00\x00\x00\x01\x01\x00\x00\x00\x0cO\xf9!\x00*S@\xbdw/R\x83\x8c%@',2014-09-25 22:31:21,left_only
330,548,1658 Cumaná Loop,NaN,Sumatera Selatan,396,51309,784907335610,b'\x00\x00\x00\x00\x01\x01\x00\x00\x00\x18\xd7S\x06\xe9\x88Z@\xe8 \x9e\xdb:N\x01\xc0',2014-09-25 22:31:34,left_only
331,60,1668 Saint Louis Place,NaN,Tahiti,397,39072,347487831378,b'\x00\x00\x00\x00\x01\x01\x00\x00\x00o\xf3\xc6I!\xb2b\xc0\xf8\xf4}\xdd\x8e\x891\xc0',2014-09-25 22:31:02,left_only
332,305,41 El Alto Parkway,NaN,Maharashtra,398,56883,51917807050,b'\x00\x00\x00\x00\x01\x01\x00\x00\x00\xd4\x87\xe4\x1aU1S@\xbc0\x88\xfe\xbfD3@',2014-09-25 22:31:22,left_only
333,99,1697 Tanauan Lane,NaN,Punjab,399,22870,4764773857,b'\x00\x00\x00\x00\x01\x01\x00\x00\x00\xca\x97\x064G\xe9R@\xb93\xb8Rt*@@',2014-09-25 22:31:22,left_only
334,491,1789 Saint-Denis Parkway,NaN,Coahuila de Zaragoza,4,8268,936806643983,b'\x00\x00\x00\x00\x01\x01\x00\x00\x00\x00\x00\x00\x00\x00\x00\x00\x00\x00\x00\x00\x00\x00\x00\x00\x00',2014-09-25 22:32:01,left_only
335,88,125 Città del Vaticano Boulevard,NaN,Puebla,40,67912,48417642933,b'\x00\x00\x00\x00\x01\x01\x00\x00\x00Sb2\xb0\xe9\x9bX\xc0=\r\x18$}\xe82@',2014-09-25 22:32:02,left_only
336,301,951 Stara Zagora Manor,NaN,Punjab,400,98573,429925609431,b'\x00\x00\x00\x00\x01\x01\x00\x00\x00\x1e)lP\xc5\x19S@VQr=\xc0S>@',2014-09-25 22:31:22,left_only
337,602,1101 Bucuresti Boulevard,NaN,West Greece,401,97661,199514580428,b'\x00\x00\x00\x00\x01\x01\x00\x00\x00\xaa\xc1\xea~\x04\xbc5@\xe6_&\xe5I\x1fC@',2014-09-25 22:31:07,left_only
338,80,602 Paarl Street,NaN,Pavlodar,402,98889,896314772871,b'\x00\x00\x00\x00\x01\x01\x00\x00\x005\x90x\xc3G@S@2\xd0\x10\xe9\x12#J@',2014-09-25 22:31:55,left_only
339,120,544 Malmö Parkway,NaN,Central Java,403,63502,386759646229,b'\x00\x00\x00\x00\x01\x01\x00\x00\x00:\xefZ\x9dwW[@&\xf1\x03\xa1\x06\xc5\x1b\xc0',2014-09-25 22:31:34,left_only
340,280,1980 Kamjanets-Podilskyi Street,NaN,Illinois,404,89502,874337098891,b'\x00\x00\x00\x00\x01\x01\x00\x00\x00\x16|\xe4 \xb2eV\xc0\xb7\x96n\xb7\xc9XD@',2014-09-25 22:33:57,left_only
341,184,1410 Benin City Parkway,NaN,Risaralda,405,29747,104150372603,"b""\x00\x00\x00\x00\x01\x01\x00\x00\x00|O\x9b'\x8d\xecR\xc0y[\xe9\xb5\xd9@\x13@""",2014-09-25 22:30:52,left_only
342,232,754 Valencia Place,NaN,Phnom Penh,406,87911,594319417514,"b""\x00\x00\x00\x00\x01\x01\x00\x00\x00\x90\x93\xd3\xe8\x9f:Z@\xaa\xcc\xdec\xfa\x1f'@""",2014-09-25 22:30:25,left_only
343,173,1294 Firozabad Drive,NaN,Ji´angxi,407,70618,161801569569,b'\x00\x00\x00\x00\x01\x01\x00\x00\x00\xee\xd7\xf8\xa7\xafw\@#2\x07\x9c\x00\x94;@',2014-09-25 22:30:40,left_only
344,492,185 Mannheim Lane,NaN,Stavropol,408,23661,589377568313,"b'\x00\x00\x00\x00\x01\x01\x00\x00\x003>\x82\xd1\x9b\x87E@$Y,\xea8\x06F@'",2014-09-25 22:32:56,left_only
345,577,1501 Pangkal Pinang Avenue,NaN,Mazowieckie,409,943,770864062795,b'\x00\x00\x00\x00\x01\x01\x00\x00\x00\x16F\xc4\xde\xd5\xb43@0\x8a\xd4j\xfeEJ@',2014-09-25 22:32:43,left_only
346,100,1308 Arecibo Way,NaN,Georgia,41,30695,6171054059,b'\x00\x00\x00\x00\x01\x01\x00\x00\x00\xfc\x00\xff\xefc~T\xc0\xbd\x9e\xf9\xe6H\xbc@@',2014-09-25 22:33:43,left_only
347,130,1666 Qomsheh Drive,NaN,São Paulo,410,66255,582835362905,b'\x00\x00\x00\x00\x01\x01\x00\x00\x00\x00\x00\x00\x00\x00\x00\x00\x00\x00\x00\x00\x00\x00\x00\x00\x00',2014-09-25 22:30:20,left_only
348,287,1405 Chisinau Place,NaN,Ponce,411,8160,62781725285,b'\x00\x00\x00\x00\x01\x01\x00\x00\x00\x97CA\xdfL\xa7P\xc0?!\x96(\xd6\x022@',2014-09-25 22:32:45,left_only
349,511,1152 al-Qatif Lane,NaN,Kalimantan Barat,412,44816,131370665218,b'\x00\x00\x00\x00\x01\x01\x00\x00\x00\x10\x7f\xa8\x8f\x9bT[@!\x03yv\xf9\xd6\x9f\xbf',2014-09-25 22:31:34,left_only
350,259,1338 Zalantun Lane,NaN,Minas Gerais,413,45403,840522972766,b'\x00\x00\x00\x00\x01\x01\x00\x00\x00\x00\x00\x00\x00\x00\x00\x00\x00\x00\x00\x00\x00\x00\x00\x00\x00',2014-09-25 22:30:21,left_only
351,267,816 Cayenne Parkway,NaN,Manab,414,93629,282874611748,b'\x00\x00\x00\x00\x01\x01\x00\x00\x00\x00\x00\x00\x00\x00\x00\x00\x00\x00\x00\x00\x00\x00\x00\x00\x00',2014-09-25 22:30:56,left_only
352,377,154 Oshawa Manor,NaN,East Java,415,72771,440365973660,b'\x00\x00\x00\x00\x01\x01\x00\x00\x00\x05\xb90w\xd2M\@e\x07K+t\x04\x1f\xc0',2014-09-25 22:31:34,left_only
353,426,1661 Abha Drive,NaN,Tamil Nadu,416,14400,270456873752,b'\x00\x00\x00\x00\x01\x01\x00\x00\x00\xd3\xb3j!\x92\xb4S@\xfb\xc5\x11\x108\xc3$@',2014-09-25 22:31:23,left_only
354,139,943 Johannesburg Avenue,NaN,Maharashtra,417,5892,90921003005,"b'\x00\x00\x00\x00\x01\x01\x00\x00\x00\xf2z0)\xbevR@^*\xdb,\x03\x852@'",2014-09-25 22:31:24,left_only
355,431,1596 Acuña Parkway,NaN,Jharkhand,418,70425,157133457169,b'\x00\x00\x00\x00\x01\x01\x00\x00\x00\x00\x00\x00\x00\x00\x00\x00\x00\x00\x00\x00\x00\x00\x00\x00\x00',2014-09-25 22:31:24,left_only
356,530,1003 Qinhuangdao Street,NaN,West Java,419,25972,35533115997,b'\x00\x00\x00\x00\x01\x01\x00\x00\x00^\xa5\x16\xa5_\xdcZ@\xa2\x169\xfaN:\x1a\xc0',2014-09-25 22:31:35,left_only
357,543,43 Vilnius Manor,NaN,Colorado,42,79814,484500282381,b'\x00\x00\x00\x00\x01\x01\x00\x00\x00\x93\x89\x00L>5Z\xc0\xd05\x82C^\xddC@',2014-09-25 22:33:44,left_only
358,335,587 Benguela Manor,NaN,Illinois,42,91590,165450987037,b'\x00\x00\x00\x00\x01\x01\x00\x00\x00\x97\xce\xe2 |\x14V\xc0\xdd\xef\xab\xcdZ\xe1D@',2014-09-25 22:33:44,left_only
359,161,1386 Nakhon Sawan Boulevard,NaN,Pyongyang-si,420,53502,368899174225,b'\x00\x00\x00\x00\x01\x01\x00\x00\x00\xf4\xba\x8f\xedFp_@\xa5_lkU\x84C@',2014-09-25 22:32:28,left_only
360,138,765 Southampton Drive,NaN,al-Qalyubiya,421,4285,23712411567,b'\x00\x00\x00\x00\x01\x01\x00\x00\x00\x1b\xeb\x87}\xa74?@\x9f\xbc~w\xe1->@',2014-09-25 22:30:57,left_only
361,246,1246 Boksburg Parkway,NaN,Hebei,422,28349,890283544295,b'\x00\x00\x00\x00\x01\x01\x00\x00\x00\xb6j2>\xa7\xe5]@\xe5\x08\xbe\x0eA\xf7C@',2014-09-25 22:30:41,left_only
362,464,76 Kermanshah Manor,NaN,Esfahan,423,23343,762361821578,b'\x00\x00\x00\x00\x01\x01\x00\x00\x00\xfff\x18-\xf6\xeeI@\xa6\x0b\xb1\xfa#\x01@@',2014-09-25 22:31:37,left_only
363,591,773 Dallas Manor,NaN,Buenos Aires,424,12664,914466027044,b'\x00\x00\x00\x00\x01\x01\x00\x00\x00\t\xc3\x80%W M\xc0\xb7\\xa2\x1f\xb2\A\xc0',2014-09-25 22:30:06,left_only
364,82,936 Salzburg Lane,NaN,Uttar Pradesh,425,96709,875756771675,b'\x00\x00\x00\x00\x01\x01\x00\x00\x00\x0c\x0e\xe5\xfa\xadOT@\xcb\xf8\xf7\x19\x178:@',2014-09-25 22:31:24,left_only
365,560,1447 Imus Place,NaN,Gujarat,426,12905,62127829280,b'\x00\x00\x00\x00\x01\x01\x00\x00\x00f\x7fE#\xc4\xb2Q@\x81\x9c\x8b\x1a\xa7J6@',2014-09-25 22:31:25,left_only
366,341,1920 Weifang Avenue,NaN,Uttar Pradesh,427,15643,869507847714,b'\x00\x00\x00\x00\x01\x01\x00\x00\x00\x1f>\xfap\xda\xc1S@t\x10\xcfm\x1d\xcf<@',2014-09-25 22:31:25,left_only
367,469,1872 Toulon Loop,NaN,OHiggins,428,7939,928809465153,b'\x00\x00\x00\x00\x01\x01\x00\x00\x00\x00\x00\x00\x00\x00\x00\x00\x00\x00\x00\x00\x00\x00\x00\x00\x00',2014-09-25 22:30:30,left_only
368,363,604 Bern Place,NaN,Jharkhand,429,5373,620719383725,b'\x00\x00\x00\x00\x01\x01\x00\x00\x00y\x9f\x99\x16\xabUU@7\xcc\x86\xeb\x07Y7@',2014-09-25 22:31:25,left_only
369,566,1229 Varanasi (Benares) Manor,NaN,Buenos Aires,43,40195,817740355461,b'\x00\x00\x00\x00\x01\x01\x00\x00\x00\x14\xda(\xa1\xaa*M\xc0.\x15e\x80UUA\xc0',2014-09-25 22:30:04,left_only
370,415,432 Garden Grove Street,NaN,Ontario,430,65630,615964523510,b'\x00\x00\x00\x00\x01\x01\x00\x00\x00>\x86}\xf1\xfb\xdbS\xc0Y\x00\xae\xbf\x80\xefE@',2014-09-25 22:30:28,left_only
371,78,1206 Dos Quebradas Place,NaN,São Paulo,431,20207,241832790687,b'\x00\x00\x00\x00\x01\x01\x00\x00\x00\x00\x00\x00\x00\x00\x00\x00\x00\x00\x00\x00\x00\x00\x00\x00\x00',2014-09-25 22:30:21,left_only
372,501,1060 Tandil Lane,NaN,Shandong,432,72349,211256301880,b'\x00\x00\x00\x00\x01\x01\x00\x00\x00\xca\xb6\x1dd#\xdd]@\xad\xf1\xe3y\xba\xb6A@',2014-09-25 22:30:41,left_only
373,296,1936 Cumaná Avenue,NaN,Virginia,433,61195,976798660411,b'\x00\x00\x00\x00\x01\x01\x00\x00\x00\xfd{:h@\xfcS\xc0e\xf4\xedn\xaf\xa2B@',2014-09-25 22:33:58,left_only
374,499,1954 Kowloon and New Kowloon Way,NaN,Chimborazo,434,63667,898559280434,b'\x00\x00\x00\x00\x01\x01\x00\x00\x00\x00\x00\x00\x00\x00\x00\x00\x00\x00\x00\x00\x00\x00\x00\x00\x00',2014-09-25 22:30:56,left_only
375,462,1485 Bratislava Place,NaN,Illinois,435,83183,924663855568,"b'\x00\x00\x00\x00\x01\x01\x00\x00\x00\xa0\x81\xa2\xc3\rFV\xc0DS\xd1\xb3\xb4""E@'",2014-09-25 22:33:59,left_only
376,546,191 José Azueta Parkway,NaN,Ruse,436,13629,932156667696,b'\x00\x00\x00\x00\x01\x01\x00\x00\x00g\xa9\xab\xf1\x88\xf89@\xcdl\xa1u\x9e\xedE@',2014-09-25 22:30:23,left_only
377,412,1639 Saarbrücken Drive,NaN,North West,437,9827,328494873422,b'\x00\x00\x00\x00\x01\x01\x00\x00\x00\x15\xcb\x88f\xf9=;@\xe4\x8a\xe6\\xe5\xaa9\xc0',2014-09-25 22:33:05,left_only
378,188,741 Ambattur Manor,NaN,Noord-Brabant,438,43310,302590383819,b'\x00\x00\x00\x00\x01\x01\x00\x00\x00i\x9em\x7fx7\x15@\xef\rt\xa3~\xd9I@',2014-09-25 22:32:21,left_only
379,231,430 Alessandria Loop,NaN,Saarland,439,47446,669828224459,b'\x00\x00\x00\x00\x01\x01\x00\x00\x00\x00\x00\x00\x00\x00\x00\x00\x00\x00\x00\x00\x00\x00\x00\x00\x00',2014-09-25 22:31:06,left_only
380,403,1190 0 Place,NaN,Rio Grande do Sul,44,10417,841876514789,b'\x00\x00\x00\x00\x01\x01\x00\x00\x00#G\xdfI\xb0\rK\xc0\x86\x15\x13@\xd6T?\xc0',2014-09-25 22:30:16,left_only
381,15,1542 Tarlac Parkway,NaN,Kanagawa,440,1027,635297277345,b'\x00\x00\x00\x00\x01\x01\x00\x00\x00\xb4\xcd\xe8\xa2|ka@k}6\x17$\xc7A@',2014-09-25 22:31:53,left_only
382,66,1717 Guadalajara Lane,NaN,Missouri,441,85505,914090181665,b'\x00\x00\x00\x00\x01\x01\x00\x00\x00\xa9&\xd2G\xaa\x8cV\xc0\xa4V\xf3wJPC@',2014-09-25 22:33:59,left_only
383,152,1952 Pune Lane,NaN,Saint-Denis,442,92150,354615066969,b'\x00\x00\x00\x00\x01\x01\x00\x00\x00\x00\x00\x00\x00\x00\x00\x00\x00\x00\x00\x00\x00\x00\x00\x00\x00',2014-09-25 22:32:46,left_only
384,26,28 Charlotte Amalie Street,NaN,Rabat-Sal-Zammour-Z,443,37551,161968374323,b'\x00\x00\x00\x00\x01\x01\x00\x00\x00\x00\x00\x00\x00\x00\x00\x00\x00\x00\x00\x00\x00\x00\x00\x00\x00',2014-09-25 22:32:16,left_only
385,503,1416 San Juan Bautista Tuxtepec Avenue,NaN,Zufar,444,50592,144206758053,b'\x00\x00\x00\x00\x01\x01\x00\x00\x00\xa6h@\x18\xd3\x0bK@\x07\x86b\xe1\xda\x031@',2014-09-25 22:32:29,left_only
386,278,144 South Hill Loop,NaN,Guanajuato,445,2012,45387294817,"b'\x00\x00\x00\x00\x01\x01\x00\x00\x00+\x84\xd5XBLY\xc0i\x9b,\xffk\x924@'",2014-09-25 22:32:11,left_only
387,274,920 Kumbakonam Loop,NaN,California,446,75090,685010736240,b'\x00\x00\x00\x00\x01\x01\x00\x00\x00\x12\xefJ\xdc\xf4i^\xc0\x1b\x95\xe55\xc0VB@',2014-09-25 22:34:00,left_only
388,271,1587 Loja Manor,NaN,Salzburg,447,5410,621625204422,"b'\x00\x00\x00\x00\x01\x01\x00\x00\x00,\x83\xc5<\x86\x16*@X\x86\xdd\x1cS\xe6G@'",2014-09-25 22:30:10,left_only
389,221,866 Shivapuri Manor,NaN,Uttar Pradesh,448,22474,778502731092,b'\x00\x00\x00\x00\x01\x01\x00\x00\x00\x94\x0b\xdf\x0cH\xa4S@rd\x8a\xdeN\x95<@',2014-09-25 22:31:26,left_only
390,6,1121 Loja Avenue,NaN,California,449,17886,838635286649,b'\x00\x00\x00\x00\x01\x01\x00\x00\x00<\x94W\x9d\x8bR]\xc0\xe8`G-\xde\rA@',2014-09-25 22:34:01,left_only
391,327,1427 A Coruña (La Coruña) Place,NaN,Buenos Aires,45,85799,972574862516,b'\x00\x00\x00\x00\x01\x01\x00\x00\x00\x00\x00\x00\x00\x00\x00\x00\x00\x00\x00\x00\x00\x00\x00\x00\x00',2014-09-25 22:30:04,left_only
392,423,437 Chungho Drive,NaN,Puerto Plata,450,59489,491271355190,"b'\x00\x00\x00\x00\x01\x01\x00\x00\x00""Z\x86\x93\x0f\xacQ\xc0\x08&\x92C\x1f\xcb3@'",2014-09-25 22:30:55,left_only
393,324,1145 Vilnius Manor,NaN,Mxico,451,73170,674805712553,b'\x00\x00\x00\x00\x01\x01\x00\x00\x00\x00\x00\x00\x00\x00\x00\x00\x00\x00\x00\x00\x00\x00\x00\x00\x00',2014-09-25 22:32:12,left_only
394,430,355 Vitória de Santo Antão Way,NaN,Oaxaca,452,81758,548003849552,b'\x00\x00\x00\x00\x01\x01\x00\x00\x00\x03c\xd8\xbc\x05\x08X\xc0P7P\xe0\x9d\x162@',2014-09-25 22:32:13,left_only
395,350,1628 Nagareyama Lane,NaN,Central,453,60079,20064292617,b'\x00\x00\x00\x00\x01\x01\x00\x00\x00\x19\xa5\xf0E \xc1L\xc0)\x00kz\xf5V9\xc0',2014-09-25 22:32:32,left_only
396,247,1483 Pathankot Street,NaN,Tucumn,454,37288,686015532180,b'\x00\x00\x00\x00\x01\x01\x00\x00\x00\x00\x00\x00\x00\x00\x00\x00\x00\x00\x00\x00\x00\x00\x00\x00\x00',2014-09-25 22:30:06,left_only
397,308,687 Alessandria Parkway,NaN,Sanaa,455,57587,407218522294,b'\x00\x00\x00\x00\x01\x01\x00\x00\x00\x0c`%zt\x1aF@\x85J\x12:\x9e\xb5.@',2014-09-25 22:34:10,left_only
398,182,1891 Rizhao Boulevard,NaN,São Paulo,456,47288,391065549876,b'\x00\x00\x00\x00\x01\x01\x00\x00\x00\x00\x00\x00\x00\x00\x00\x00\x00\x00\x00\x00\x00\x00\x00\x00\x00',2014-09-25 22:30:21,left_only
399,336,430 Kumbakonam Drive,NaN,Santa Fé,457,28814,105470691550,"b'\x00\x00\x00\x00\x01\x01\x00\x00\x00\x04\xc1\x88""I0M\xc0U\xdfT\xff{NA\xc0'",2014-09-25 22:30:07,left_only
400,528,1176 Southend-on-Sea Manor,NaN,Southern Tagalog,458,81651,236679267178,b'\x00\x00\x00\x00\x01\x01\x00\x00\x00\x00\x00\x00\x00\x00\x00\x00\x00\x00\x00\x00\x00\x00\x00\x00\x00',2014-09-25 22:32:39,left_only
401,555,1764 Jalib al-Shuyukh Parkway,NaN,Galicia,459,77642,84794532510,b'\x00\x00\x00\x00\x01\x01\x00\x00\x00\x90\xff\xb8\xb3e\x17!\xc0\x9d\xb2?\xf5\xb4pE@',2014-09-25 22:33:10,left_only
402,544,183 Haiphong Street,NaN,Jilin,46,69953,488600270038,b'\x00\x00\x00\x00\x01\x01\x00\x00\x00\xaf\xa3`|\x87\xb4^@8\xa8X\x90\xc1\xcdF@',2014-09-25 22:30:30,left_only
403,263,532 Toulon Street,NaN,Santiago,460,69517,46871694740,b'\x00\x00\x00\x00\x01\x01\x00\x00\x00\xec\xd3;&\x9c\xacQ\xc0\x9a\xb6\x7fe\xa5s3@',2014-09-25 22:30:55,left_only
404,359,519 Nyeri Manor,NaN,São Paulo,461,37650,764680915323,b'\x00\x00\x00\x00\x01\x01\x00\x00\x00\x00\x00\x00\x00\x00\x00\x00\x00\x00\x00\x00\x00\x00\x00\x00\x00',2014-09-25 22:30:21,left_only
405,552,390 Wroclaw Way,NaN,Hainan,462,5753,357593328658,b'\x00\x00\x00\x00\x01\x01\x00\x00\x00\xf7\x0f\xd8\x8bW`[@6NT\x809>2@',2014-09-25 22:30:41,left_only
406,5,1913 Hanoi Way,NaN,Nagasaki,463,35200,28303384290,b'\x00\x00\x00\x00\x01\x01\x00\x00\x00(\xd17\x0e!7`@\xab\xb5\x8b\xc4_\x94@@',2014-09-25 22:31:53,left_only
407,361,45 Aparecida de Goiânia Place,NaN,Madhya Pradesh,464,7431,650496654258,b'\x00\x00\x00\x00\x01\x01\x00\x00\x00\x9e\x0c\xe9K\xca4T@\xc9\xfd\xb3\x8b\x0e\x958@',2014-09-25 22:31:26,left_only
408,428,1727 Matamoros Place,NaN,Sawhaj,465,78813,129673677866,"b""\x00\x00\x00\x00\x01\x01\x00\x00\x00\x83\xe3\x8d'\xdd\xb1?@U[\xa0\x93\x94\x8e:@""",2014-09-25 22:30:57,left_only
409,573,1407 Surakarta Manor,NaN,Moskova,466,33224,324346485054,b'\x00\x00\x00\x00\x01\x01\x00\x00\x00\x00\x00\x00\x00\x00\x00\x00\x00\x00\x00\x00\x00\x00\x00\x00\x00',2014-09-25 22:32:56,left_only
410,189,927 Barcelona Street,NaN,Chaharmahal va Bakht,467,65121,951486492670,b'\x00\x00\x00\x00\x01\x01\x00\x00\x00\x00\x00\x00\x00\x00\x00\x00\x00\x00\x00\x00\x00\x00\x00\x00\x00',2014-09-25 22:31:38,left_only
411,429,1269 Botosani Manor,NaN,Guangdong,468,47394,736517327853,b'\x00\x00\x00\x00\x01\x01\x00\x00\x00\xc8\xe1\xdd\xdb>\xd6\@(\x1b \xe20\xc86@',2014-09-25 22:30:42,left_only
412,490,1909 Dayton Avenue,NaN,Guangdong,469,88513,702955450528,b'\x00\x00\x00\x00\x01\x01\x00\x00\x00{\xe0\xbeiUe\@TW\x99\x84f\xe48@',2014-09-25 22:30:42,left_only
413,500,362 Rajkot Lane,NaN,Gansu,47,98030,962020153680,b'\x00\x00\x00\x00\x01\x01\x00\x00\x00Oo\xeb\x13\xe5\nZ@(s=\x1b\x03FB@',2014-09-25 22:30:31,left_only
414,297,1192 Tongliao Street,NaN,Sharja,470,19065,350970907017,"b""\x00\x00\x00\x00\x01\x01\x00\x00\x00\xaa'\xf3\x8f\xbe\xb4K@S\xe6\x8bb^V9@""",2014-09-25 22:33:35,left_only
415,383,686 Donostia-San Sebastián Lane,NaN,Guangdong,471,97390,71857599858,b'\x00\x00\x00\x00\x01\x01\x00\x00\x00\xf9\n\x1c\x1a`\x84\@\x0f\xdbq\x1e\xa9\x8b6@',2014-09-25 22:30:42,left_only
416,29,934 San Felipe de Puerto Plata Street,NaN,Sind,472,99780,196495945706,b'\x00\x00\x00\x00\x01\x01\x00\x00\x00\x8ek\x8dR\xd3(Q@\xd5\x8e\x87c\x02\xf5;@',2014-09-25 22:32:31,left_only
417,242,1964 Gijón Manor,NaN,Karnataka,473,14408,918119601885,b'\x00\x00\x00\x00\x01\x01\x00\x00\x00\xbb\xc3\xdc\xa4X\xe4R@\xdaBF\xf6\xf7\xdc+@',2014-09-25 22:31:26,left_only
418,33,786 Aurora Avenue,NaN,Yamaguchi,474,65750,18461860151,b'\x00\x00\x00\x00\x01\x01\x00\x00\x00\xe7\x12XJ\xa0^`@\xd1W5\xad\xb9\xfa@@',2014-09-25 22:31:53,left_only
419,72,57 Arlington Manor,NaN,Madhya Pradesh,475,48960,990214419142,"b""\x00\x00\x00\x00\x01\x01\x00\x00\x00\x8emc\xfd\xb0iS@'\xd9\xearJn9@""",2014-09-25 22:31:27,left_only
420,123,1987 Coacalco de Berriozábal Loop,NaN,al-Qalyubiya,476,96065,787654415858,b'\x00\x00\x00\x00\x01\x01\x00\x00\x00YZ\xfc\#@?@\xaf\xbai\x8e\x07 >@',2014-09-25 22:30:58,left_only
421,199,1792 Valle de la Pascua Place,NaN,Nordrhein-Westfalen,477,15540,419419591240,b'\x00\x00\x00\x00\x01\x01\x00\x00\x00\xe9\xbd\x8c\xbdr\x0c @Vr_\x18\xfaoI@',2014-09-25 22:31:06,left_only
422,507,1197 Sokoto Boulevard,NaN,West Bengali,478,87687,868602816371,b'\x00\x00\x00\x00\x01\x01\x00\x00\x00\x10\x95F\xccl\x1bV@\x8f\x0f\xc4\xc3\xc5\xb5:@',2014-09-25 22:31:27,left_only
423,86,927 Bahía Blanca Parkway,NaN,Krim,479,9495,821972242086,b'\x00\x00\x00\x00\x01\x01\x00\x00\x00A}\xcb\x9c.\x0eA@\xbc)@o\x85zF@',2014-09-25 22:33:33,left_only
424,338,431 Székesfehérvár Avenue,NaN,Baki,48,57828,119501405123,b'\x00\x00\x00\x00\x01\x01\x00\x00\x00\xa7v\x86\xa9-\xf2H@\x0f\xae\xca\xcfW0D@',2014-09-25 22:30:11,left_only
425,91,1740 Portoviejo Avenue,NaN,Sucre,480,29932,198123170793,"b'\x00\x00\x00\x00\x01\x01\x00\x00\x00\xc4\xad\'_u\xd9R\xc0zQ\xbb_\x05\x9c""@'",2014-09-25 22:30:53,left_only
426,454,956 Nam Dinh Manor,NaN,Kerman,481,21872,474047727727,b'\x00\x00\x00\x00\x01\x01\x00\x00\x00\xf1b\x06\xcf)\xd7K@\xcf\xa9\x1as\x8ds=@',2014-09-25 22:31:39,left_only
427,524,680 A Coruña (La Coruña) Manor,NaN,Sivas,482,49806,158326114853,b'\x00\x00\x00\x00\x01\x01\x00\x00\x00\x93n\xf0*\x10\x82B@\xf2\xf6\xd6v\xc9\xdfC@',2014-09-25 22:33:28,left_only
428,180,757 Rustenburg Avenue,NaN,Skikda,483,89668,506134035434,b'\x00\x00\x00\x00\x01\x01\x00\x00\x00\xbf\xd7k\xd5\t\xa3\x1b@c\x86|\x86&pB@',2014-09-25 22:30:01,left_only
429,131,801 Hagonoy Drive,NaN,Smolensk,484,8439,237426099212,"b'\x00\x00\x00\x00\x01\x01\x00\x00\x00\x1e\xb8\x14\xa1""\x05@@\xbb\x85\t\xfe\x12dK@'",2014-09-25 22:32:57,left_only
430,550,1715 Okayama Street,NaN,São Paulo,485,55676,169352919175,b'\x00\x00\x00\x00\x01\x01\x00\x00\x00\x00\x00\x00\x00\x00\x00\x00\x00\x00\x00\x00\x00\x00\x00\x00\x00',2014-09-25 22:30:22,left_only
431,448,614 Denizli Parkway,NaN,Rio Grande do Sul,486,29444,876491807547,b'\x00\x00\x00\x00\x01\x01\x00\x00\x00\x00\x00\x00\x00\x00\x00\x00\x00\x00\x00\x00\x00\x00\x00\x00\x00',2014-09-25 22:30:22,left_only
432,495,656 Matamoros Drive,NaN,Boyac,487,19489,17305839123,b'\x00\x00\x00\x00\x01\x01\x00\x00\x00\x00\x00\x00\x00\x00\x00\x00\x00\x00\x00\x00\x00\x00\x00\x00\x00',2014-09-25 22:30:53,left_only
433,568,1342 Sharja Way,NaN,Sokoto & Kebbi & Zam,488,93655,946114054231,b'\x00\x00\x00\x00\x01\x01\x00\x00\x00[\x08rP\xc2\xf4\x14@\xe7\x11\xedt1\x1f*@',2014-09-25 22:32:27,left_only
434,90,870 Ashqelon Loop,NaN,Songkhla,489,84931,135117278909,b'\x00\x00\x00\x00\x01\x01\x00\x00\x00\xe8%\x10\xc0\x17&Y@\x11Zj\x18\x99\xcb\x1c@',2014-09-25 22:33:20,left_only
435,59,1697 Kowloon and New Kowloon Loop,NaN,Moskova,49,57807,499352017190,b'\x00\x00\x00\x00\x01\x01\x00\x00\x00\x00\x00\x00\x00\x00\x00\x00\x00\x00\x00\x00\x00\x00\x00\x00\x00',2014-09-25 22:32:47,left_only
436,319,1957 Yantai Lane,NaN,São Paulo,490,59255,704948322302,b'\x00\x00\x00\x00\x01\x01\x00\x00\x00\x00\x00\x00\x00\x00\x00\x00\x00\x00\x00\x00\x00\x00\x00\x00\x00',2014-09-25 22:30:22,left_only
437,149,999 Sanaa Loop,NaN,Gauteng,491,3439,918032330119,b'\x00\x00\x00\x00\x01\x01\x00\x00\x00\x0e\r0\x98d\x19<@\xf24\xaa\x1d\x0fy9\xc0',2014-09-25 22:33:05,left_only
438,340,507 Smolensk Loop,NaN,Sousse,492,22971,80303246192,b'\x00\x00\x00\x00\x01\x01\x00\x00\x00)\x8e\xa8\xf5#F%@u\xdad\x9e\xa6\xe9A@',2014-09-25 22:33:21,left_only
439,386,1368 Maracaíbo Boulevard,NaN,NaN,493,32716,934352415130,b'\x00\x00\x00\x00\x01\x01\x00\x00\x00s\x10t\xb4\xaa\x8aO\xc0P\x92\tS\xef.2@',2014-09-25 22:30:03,left_only
440,589,1584 Ljubertsy Lane,NaN,England,494,22954,285710089439,b'\x00\x00\x00\x00\x01\x01\x00\x00\x0058[\x8a\xf5w\xf6\xbf\x8cu`\xef\xb4sI@',2014-09-25 22:33:38,left_only
441,20,360 Toulouse Parkway,NaN,England,495,54308,949312333307,b'\x00\x00\x00\x00\x01\x01\x00\x00\x00\x86\x0f\xdb\xcc\xd7\xdb\xe6?\xfd\xcf\xabK\xd7\xc4I@',2014-09-25 22:33:40,left_only
442,562,869 Shikarpur Way,NaN,England,496,57380,590764256785,b'\x00\x00\x00\x00\x01\x01\x00\x00\x00\x89O\xf0\x03F\r\x08\xc0\x82\x84r\xec\xea\xd2J@',2014-09-25 22:33:40,left_only
443,87,929 Tallahassee Loop,NaN,Gauteng,497,74671,800716535041,b'\x00\x00\x00\x00\x01\x01\x00\x00\x00d\x7f\x8f\xb0^k<@\x7f`\xd8\xab\xd9@:\xc0',2014-09-25 22:33:06,left_only
444,219,1229 Valencia Parkway,NaN,Haskovo,498,99124,352679173732,b'\x00\x00\x00\x00\x01\x01\x00\x00\x00\x00\x00\x00\x00\x00\x00\x00\x00\x00\x00\x00\x00\x00\x00\x00\x00',2014-09-25 22:30:24,left_only
445,150,879 Newcastle Way,NaN,Michigan,499,90732,206841104594,b'\x00\x00\x00\x00\x01\x01\x00\x00\x00\x91j\x8eb\xef\xc1T\xc0\x82D\xc9\x9aGJE@',2014-09-25 22:34:01,left_only
446,332,663 Bahía Blanca Parkway,NaN,Adana,5,33463,834418779292,"b""\x00\x00\x00\x00\x01\x01\x00\x00\x00\xber\x18'\x19\xaaA@\xcc\xd1\xe3\xf76\x80B@""",2014-09-25 22:33:22,left_only
447,371,1912 Emeishan Drive,NaN,Balikesir,50,33050,99883471275,b'\x00\x00\x00\x00\x01\x01\x00\x00\x00\xf1\x07M\\xd8\xe2;@\x0b*\x058\x18\xd3C@',2014-09-25 22:33:22,left_only
448,482,808 Naçala-Porto Parkway,NaN,England,500,41060,553452430707,b'\x00\x00\x00\x00\x01\x01\x00\x00\x00\x0e`6\xa6\xccB\x01\xc0\xb9\xd7\x93\nt\xb4J@',2014-09-25 22:33:41,left_only
449,436,287 Cuautla Boulevard,NaN,Chuquisaca,501,72736,82619513349,b'\x00\x00\x00\x00\x01\x01\x00\x00\x00*\x0b\x15\xd2\xd0PP\xc0I\xc4J\xbb\x87\x083\xc0',2014-09-25 22:30:14,left_only
450,516,1574 Goiânia Boulevard,NaN,Heilongjiang,502,39529,59634255214,b'\x00\x00\x00\x00\x01\x01\x00\x00\x00\x17\x12\x8bs\xaf\xbf_@\xc5\xec\xc0\x94\xdcQG@',2014-09-25 22:30:43,left_only
451,603,1103 Quilmes Boulevard,NaN,Piura,503,52137,644021380889,b'\x00\x00\x00\x00\x01\x01\x00\x00\x00\xad\x96\x85\xc0\xdb+T\xc0\x9b\x01.\xc8\x96\x9d\x13\xc0',2014-09-25 22:32:34,left_only
452,498,319 Plock Parkway,NaN,Istanbul,504,26101,854259976812,"b""\x00\x00\x00\x00\x01\x01\x00\x00\x00\xb6\xef\xf6\xc5JE=@'~1\x00\xf9zD@""",2014-09-25 22:33:28,left_only
453,339,503 Sogamoso Loop,NaN,Sumqayit,505,49812,834626715837,"b'\x00\x00\x00\x00\x01\x01\x00\x00\x00l\x83\xc9C\x95\xd5H@,\x8e\xb9!|KD@'",2014-09-25 22:30:11,left_only
454,191,140 Chiayi Parkway,NaN,Sumy,506,38982,855863906434,"b'\x00\x00\x00\x00\x01\x01\x00\x00\x00,C\xc11pfA@Q\xbb_\x05\xf8uI@'",2014-09-25 22:33:34,left_only
455,311,715 São Bernardo do Campo Lane,NaN,Kedah,507,84804,181179321332,b'\x00\x00\x00\x00\x01\x01\x00\x00\x00\xd8\xdb\xc1\xe36\x1fY@R\r\xfb=\xb1\x96\x16@',2014-09-25 22:32:00,left_only
456,218,226 Brest Manor,NaN,California,508,2299,785881412500,b'\x00\x00\x00\x00\x01\x01\x00\x00\x00\xcf\x9f6\xaaS\x82^\xc0\xb5M\x96\xff5\xafB@',2014-09-25 22:34:02,left_only
457,455,1947 Paarl Way,NaN,Central Java,509,23636,834061016202,b'\x00\x00\x00\x00\x01\x01\x00\x00\x00\xc4\xd7\x8d-:\xb5[@\xac\x99k\x87u9\x1e\xc0',2014-09-25 22:31:35,left_only
458,212,624 Oshawa Boulevard,NaN,West Bengali,51,89959,49677664184,b'\x00\x00\x00\x00\x01\x01\x00\x00\x00\x0f\xbc\xb5\xa7\xbf1V@\xea|\xd3O\x9389@',2014-09-25 22:31:11,left_only
459,433,1823 Hoshiarpur Lane,NaN,Komi,510,33191,307133768620,b'\x00\x00\x00\x00\x01\x01\x00\x00\x00\xc6\xda\x84 \xacgI@\xdd\x9a\xcf\x14\x95\xd6N@',2014-09-25 22:32:57,left_only
460,225,1926 Gingoog Street,NaN,Sisilia,511,22824,469738825391,b'\x00\x00\x00\x00\x01\x01\x00\x00\x00M\xd9\xe9\x07u\x8d.@q\x9a\xf4\xad\xc5\x8aB@',2014-09-25 22:31:44,left_only
461,598,42 Fontana Avenue,NaN,Fejr,512,14684,437829801725,b'\x00\x00\x00\x00\x01\x01\x00\x00\x00\x00\x00\x00\x00\x00\x00\x00\x00\x00\x00\x00\x00\x00\x00\x00\x00',2014-09-25 22:31:09,left_only
462,194,605 Rio Claro Parkway,NaN,Tabora,513,49348,352469351088,b'\x00\x00\x00\x00\x01\x01\x00\x00\x00N\x8b\x0bQ\xcfi@@\xdfg\x01\x7f\x9d\x10\x14\xc0',2014-09-25 22:33:18,left_only
463,284,600 Bradford Street,NaN,East Azerbaidzan,514,96204,117592274996,b'\x00\x00\x00\x00\x01\x01\x00\x00\x00\xeeN-\x11^%G@D\xff_\xd0\x9d\nC@',2014-09-25 22:31:40,left_only
464,317,780 Kimberley Way,NaN,Tabuk,515,17032,824396883951,"b""\x00\x00\x00\x00\x01\x01\x00\x00\x00\x1b\xd4~k'IB@\x8bS\xad\x85Yf<@""",2014-09-25 22:33:00,left_only
465,325,1892 Nabereznyje Tšelny Lane,NaN,Tutuila,516,28396,478229987054,b'\x00\x00\x00\x00\x01\x01\x00\x00\x00\x00\x00\x00\x00\x00\x00\x00\x00\x00\x00\x00\x00\x00\x00\x00\x00',2014-09-25 22:30:02,left_only
466,76,89 Allappuzha (Alleppey) Manor,NaN,National Capital Reg,517,75444,255800440636,b'\x00\x00\x00\x00\x01\x01\x00\x00\x00\x00\x00\x00\x00\x00\x00\x00\x00\x00\x00\x00\x00\x00\x00\x00\x00',2014-09-25 22:32:39,left_only
467,217,1001 Miyakonojo Lane,NaN,Taizz,518,67924,584316724815,"b'\x00\x00\x00\x00\x01\x01\x00\x00\x00fB\xddQ\xad\x02F@x,\x11\x03\xb8(+@'",2014-09-25 22:34:11,left_only
468,510,48 Maracaíbo Place,NaN,Central Luzon,519,1570,82671830126,"b'\x00\x00\x00\x00\x01\x01\x00\x00\x00""9\x99\xb8\xd5:^@\x8d\x87\xad\x8f=-/@'",2014-09-25 22:32:39,left_only
469,357,1641 Changhwa Place,NaN,Nord-Ouest,52,37636,256546485220,b'\x00\x00\x00\x00\x01\x01\x00\x00\x00\x10;S\xe8\xbcJ$@\xa4\xc0\xa7\xde\xbf\xd6\x17@',2014-09-25 22:30:25,left_only
470,252,1309 Weifang Street,NaN,Florida,520,57338,435785045362,b'\x00\x00\x00\x00\x01\x01\x00\x00\x00\xec\x0c\xf8\xa1\xf7\x11U\xc0\x99Z\x00d2p>@',2014-09-25 22:34:02,left_only
471,390,102 Chapra Drive,NaN,Ibaragi,521,14073,776031833752,b'\x00\x00\x00\x00\x01\x01\x00\x00\x00\x00\x00\x00\x00\x00\x00\x00\x00\x00\x00\x00\x00\x00\x00\x00\x00',2014-09-25 22:31:54,left_only
472,292,1993 Tabuk Lane,NaN,Tamil Nadu,522,64221,648482415405,b'\x00\x00\x00\x00\x01\x01\x00\x00\x00*\xf3\xa0\xea!\x08T@\x7f\x94\xc7\x89e\xd9)@',2014-09-25 22:31:27,left_only
473,378,1191 Tandil Drive,NaN,Southern Tagalog,523,6362,45554316010,b'\x00\x00\x00\x00\x01\x01\x00\x00\x00\x00\x00\x00\x00\x00\x00\x00\x00\x00\x00\x00\x00\x00\x00\x00\x00',2014-09-25 22:32:40,left_only
474,410,88 Nagaon Manor,NaN,Buenos Aires,524,86868,779461480495,"b'\x00\x00\x00\x00\x01\x01\x00\x00\x00\xca76\x96\x0b\x91M\xc0\xd7\x8a\x91\x80,\xa9B\xc0'",2014-09-25 22:30:07,left_only
475,25,262 A Coruña (La Coruña) Parkway,NaN,Dhaka,525,34418,892775750063,b'\x00\x00\x00\x00\x01\x01\x00\x00\x00\xf17\x90\xe4\xa8zV@\xe7\xf67\r\xf6?8@',2014-09-25 22:30:12,left_only
476,583,1489 Kakamigahara Lane,NaN,Taipei,526,98883,29341849811,b'\x00\x00\x00\x00\x01\x01\x00\x00\x00\x00\x00\x00\x00\x00\x00\x00\x00\x00\x00\x00\x00\x00\x00\x00\x00',2014-09-25 22:33:16,left_only
477,240,1479 Rustenburg Boulevard,NaN,Southern Tagalog,527,18727,727785483194,b'\x00\x00\x00\x00\x01\x01\x00\x00\x00\x00\x00\x00\x00\x00\x00\x00\x00\x00\x00\x00\x00\x00\x00\x00\x00',2014-09-25 22:32:40,left_only
478,554,947 Tórshavn Place,NaN,Central Luzon,528,841,50898428626,b'\x00\x00\x00\x00\x01\x01\x00\x00\x00\xc5m\xd9\xc6D&^@\x02\xb5\xbd\x82\xd9\xf5.@',2014-09-25 22:32:40,left_only
479,168,842 Salzburg Lane,NaN,Adana,529,3313,697151428760,"b'\x00\x00\x00\x00\x01\x01\x00\x00\x00r\x07\xa0\x07-\xd5A@\x93""\x8deU\xa6B@'",2014-09-25 22:33:29,left_only
480,95,1370 Le Mans Avenue,NaN,Brunei and Muara,53,52163,345679835036,b'\x00\x00\x00\x00\x01\x01\x00\x00\x00\x13\xe8]\x06\xad\xbc\@*\x0eVR\xdd\xc2\x13@',2014-09-25 22:30:23,left_only
481,449,1289 Belém Boulevard,NaN,Tartumaa,530,88306,237368926031,b'\x00\x00\x00\x00\x01\x01\x00\x00\x00yh\x0e\xff\x9f\xb9:@l~W_\xb80M@',2014-09-25 22:30:58,left_only
482,355,469 Nakhon Sawan Street,NaN,Tuvassia,531,58866,689199636560,b'\x00\x00\x00\x00\x01\x01\x00\x00\x00\x00\x00\x00\x00\x00\x00\x00\x00\x00\x00\x00\x00\x00\x00\x00\x00',2014-09-25 22:32:58,left_only
483,463,935 Aden Boulevard,NaN,Central Java,532,64709,335052544020,b'\x00\x00\x00\x00\x01\x01\x00\x00\x00\xc7\x13\x9cU\xfaH[@\xbe\xe45e]z\x1b\xc0',2014-09-25 22:31:35,left_only
484,165,97 Shimoga Avenue,NaN,Tel Aviv,533,44660,177167004331,b'\x00\x00\x00\x00\x01\x01\x00\x00\x00\x9aV\xaf\xc7\xe9cA@1\x92\xe2\x88Z\n@@',2014-09-25 22:31:41,left_only
485,101,1599 Plock Drive,NaN,Tete,534,71986,817248913162,b'\x00\x00\x00\x00\x01\x01\x00\x00\x00\xdcwV\x1c\x18\xcb@@\xb4CW}\t(0\xc0',2014-09-25 22:32:18,left_only
486,253,1760 Oshawa Manor,NaN,Tianjin,535,38140,56257502250,b'\x00\x00\x00\x00\x01\x01\x00\x00\x00\xfb\xbd^\xabNK]@\xeb\nl\x844\x92C@',2014-09-25 22:30:43,left_only
487,307,1908 Gaziantep Place,NaN,Liaoning,536,58979,108053751300,b'\x00\x00\x00\x00\x01\x01\x00\x00\x00M\xaal\x0e\xc6\xe6^@\x8e\x9f|0\xdf4E@',2014-09-25 22:30:43,left_only
488,605,1325 Fukuyama Street,NaN,Heilongjiang,537,27107,288241215394,b'\x00\x00\x00\x00\x01\x01\x00\x00\x00\x17T\npp\x01`@\x1e\x1cG\x07\x7f}G@',2014-09-25 22:30:44,left_only
489,572,539 Hami Way,NaN,Tokat,538,52196,525518075499,b'\x00\x00\x00\x00\x01\x01\x00\x00\x00o0/\x1b\xf8FB@\xad{u\x9f-(D@',2014-09-25 22:33:29,left_only
490,542,193 Bhusawal Place,NaN,Kang-won,539,9750,745267607502,b'\x00\x00\x00\x00\x01\x01\x00\x00\x00\x00\x00\x00\x00\x00\x00\x00\x00\x00\x00\x00\x00\x00\x00\x00\x00',2014-09-25 22:33:07,left_only
491,590,247 Jining Parkway,NaN,Banjul,54,53446,170115379190,b'\x00\x00\x00\x00\x01\x01\x00\x00\x00\x1b\xe4\xe44\xfa\x930\xc0\x8a\x8fO\xc8\xce\xe7*@',2014-09-25 22:31:04,left_only
492,447,105 Dzerzinsk Manor,NaN,Inner Mongolia,540,48570,240776414296,b'\x00\x00\x00\x00\x01\x01\x00\x00\x00\xf1\xc0[{\xfa\x90^@\xf5\xec\x03\xdag\xceE@',2014-09-25 22:30:44,left_only
493,137,261 Saint Louis Way,NaN,Coahuila de Zaragoza,541,83401,321944036800,b'\x00\x00\x00\x00\x01\x01\x00\x00\x00\x00\x00\x00\x00\x00\x00\x00\x00\x00\x00\x00\x00\x00\x00\x00\x00',2014-09-25 22:32:13,left_only
494,143,1029 Dzerzinsk Manor,NaN,Ynlin,542,57519,33173584456,b'\x00\x00\x00\x00\x01\x01\x00\x00\x00\x00\x00\x00\x00\x00\x00\x00\x00\x00\x00\x00\x00\x00\x00\x00\x00',2014-09-25 22:33:16,left_only
495,108,1386 Yangor Avenue,NaN,Provence-Alpes-Cte,543,80720,449216226468,b'\x00\x00\x00\x00\x01\x01\x00\x00\x00\x00\x00\x00\x00\x00\x00\x00\x00\x00\x00\x00\x00\x00\x00\x00\x00',2014-09-25 22:31:01,left_only
496,39,391 Callao Drive,NaN,Midi-Pyrnes,544,34021,440512153169,b'\x00\x00\x00\x00\x01\x01\x00\x00\x00\x00\x00\x00\x00\x00\x00\x00\x00\x00\x00\x00\x00\x00\x00\x00\x00',2014-09-25 22:31:01,left_only
497,322,1359 Zhoushan Parkway,NaN,Streymoyar,545,29763,46568045367,b'\x00\x00\x00\x00\x01\x01\x00\x00\x00\x00\x00\x00\x00\x00\x00\x00\x00\x00\x00\x00\x00\x00\x00\x00\x00',2014-09-25 22:30:59,left_only
498,592,1923 Stara Zagora Lane,NaN,Nantou,546,95179,182178609211,b'\x00\x00\x00\x00\x01\x01\x00\x00\x00\x00\x00\x00\x00\x00\x00\x00\x00\x00\x00\x00\x00\x00\x00\x00\x00',2014-09-25 22:33:17,left_only
499,434,1404 Taguig Drive,NaN,Okayama,547,87212,572068624538,b'\x00\x00\x00\x00\x01\x01\x00\x00\x00 ]\x11\xa1\xf6\xbf`@\xbf\xe9\x02\x03\xad\x86A@',2014-09-25 22:31:54,left_only
500,266,862 Xintai Lane,NaN,Cagayan Valley,548,30065,265153400632,b'\x00\x00\x00\x00\x01\x01\x00\x00\x00\x15X\x00S\x86n^@\x8a\\xcb\xbf\xf1\x9c1@',2014-09-25 22:32:41,left_only
501,385,1642 Charlotte Amalie Drive,NaN,Slaskie,549,75442,821476736117,b'\x00\x00\x00\x00\x01\x01\x00\x00\x00\xdd\xc4\xda)g\xf72@\xd5\xd6\xe3\x19\x8f\x11I@',2014-09-25 22:32:44,left_only
502,574,502 Mandi Bahauddin Parkway,NaN,Anzotegui,55,15992,618156722572,b'\x00\x00\x00\x00\x01\x01\x00\x00\x00\x00\x00\x00\x00\x00\x00\x00\x00\x00\x00\x00\x00\x00\x00\x00\x00',2014-09-25 22:34:03,left_only
503,174,1877 Ezhou Lane,NaN,Rajasthan,550,63337,264541743403,b'\x00\x00\x00\x00\x01\x01\x00\x00\x00)r-\xffFlR@\x19i\xf3I8\x928@',2014-09-25 22:31:28,left_only
504,531,1986 Sivas Place,NaN,Friuli-Venezia Giuli,551,95775,182059202712,b'\x00\x00\x00\x00\x01\x01\x00\x00\x00\x00\x00\x00\x00\x00\x00\x00\x00\x00\x00\x00\x00\x00\x00\x00\x00',2014-09-25 22:31:44,left_only
505,508,496 Celaya Drive,NaN,Nagano,552,90797,759586584889,b'\x00\x00\x00\x00\x01\x01\x00\x00\x00%N8\x05\x03Ia@$\x86\xd38\x8a3B@',2014-09-25 22:31:54,left_only
506,249,300 Junan Street,NaN,Kyonggi,553,81314,890289150158,b'\x00\x00\x00\x00\x01\x01\x00\x00\x00\x00\x00\x00\x00\x00\x00\x00\x00\x00\x00\x00\x00\x00\x00\x00\x00',2014-09-25 22:33:08,left_only
507,451,1704 Tambaram Manor,NaN,West Bengali,554,2834,39463554936,b'\x00\x00\x00\x00\x01\x01\x00\x00\x00\xa4\xe9\xa2\xd7U\x06V@\xf5\x98\xed\xaf\xc3y6@',2014-09-25 22:31:28,left_only
508,151,1337 Lincoln Parkway,NaN,Saitama,555,99457,597815221267,"b""\x00\x00\x00\x00\x01\x01\x00\x00\x00^\x0e`6\xa6ta@Eb'aK\xeeA@""",2014-09-25 22:31:55,left_only
509,459,251 Florencia Drive,NaN,Michoacn de Ocampo,556,16119,118011831565,b'\x00\x00\x00\x00\x01\x01\x00\x00\x00\x00\x00\x00\x00\x00\x00\x00\x00\x00\x00\x00\x00\x00\x00\x00\x00',2014-09-25 22:32:13,left_only
510,208,1215 Pyongyang Parkway,NaN,Usak,557,25238,646237101779,b'\x00\x00\x00\x00\x01\x01\x00\x00\x00\x01\x9eY\xb7\xe6g=@s^\x08\xde5VC@',2014-09-25 22:33:30,left_only
511,467,1621 Tongliao Avenue,NaN,Irkutsk,558,22173,209342540247,b'\x00\x00\x00\x00\x01\x01\x00\x00\x00\xc7&\x9eXL\xe9Y@\xe5j\x1a\xca?`J@',2014-09-25 22:32:58,left_only
512,235,954 Kimchon Place,NaN,West Bengali,559,42420,541327526474,b'\x00\x00\x00\x00\x01\x01\x00\x00\x00\x00\x00\x00\x00\x00\x00\x00\x00\x00\x00\x00\x00\x00\x00\x00\x00',2014-09-25 22:31:28,left_only
513,65,915 Ponce Place,NaN,Basel-Stadt,56,83980,1395251317,b'\x00\x00\x00\x00\x01\x01\x00\x00\x00\raF\xc2\x08K\x1e@\xe5\x8b\x07\xa5y\xc7G@',2014-09-25 22:33:12,left_only
514,61,943 Tokat Street,NaN,Vaduz,560,45428,889318963672,b'\x00\x00\x00\x00\x01\x01\x00\x00\x00\x7fxL\x93\x08\x0b#@\x03A\x80\x0c\x1d\x92G@',2014-09-25 22:31:58,left_only
515,545,163 Augusta-Richmond County Loop,NaN,Carabobo,561,33030,754579047924,b'\x00\x00\x00\x00\x01\x01\x00\x00\x00\xcc\x0c\x1be}\x00Q\xc0k\x7fg{\xf4R$@',2014-09-25 22:34:05,left_only
516,295,544 Tarsus Boulevard,NaN,Gurico,562,53145,892523334,b'\x00\x00\x00\x00\x01\x01\x00\x00\x00\x00\x00\x00\x00\x00\x00\x00\x00\x00\x00\x00\x00\x00\x00\x00\x00',2014-09-25 22:34:05,left_only
517,293,86 Higashiosaka Lane,NaN,Guanajuato,563,33768,957128697225,b'\x00\x00\x00\x00\x01\x01\x00\x00\x00-\xaf\o\x1bLY\xc0\x7f4\xf7\xeb\xa9d4@',2014-09-25 22:32:14,left_only
518,408,990 Etawah Loop,NaN,Tamil Nadu,564,79940,206169448769,b'\x00\x00\x00\x00\x01\x01\x00\x00\x00\xd5KB\xd8\xdf<S@\xfeQ\x8a\x0ca\xa7$@',2014-09-25 22:31:29,left_only
519,441,983 Santa Fé Way,NaN,British Colombia,565,47472,145720452260,b'\x00\x00\x00\x00\x01\x01\x00\x00\x00q\x9c\xcaX\xa3\xc7^\xc0\xee\xe7\xb9*\xf5\x9fH@',2014-09-25 22:30:28,left_only
520,127,117 Boa Vista Way,NaN,Uttar Pradesh,566,6804,677976133614,b'\x00\x00\x00\x00\x01\x01\x00\x00\x00\x856J\xa8\xaa\xc0T@\x86\xba\xfe\x13\x12Q9@',2014-09-25 22:31:29,left_only
521,223,1244 Allappuzha (Alleppey) Place,NaN,Buenos Aires,567,20657,991802825778,b'\x00\x00\x00\x00\x01\x01\x00\x00\x00\x00\x00\x00\x00\x00\x00\x00\x00\x00\x00\x00\x00\x00\x00\x00\x00',2014-09-25 22:30:08,left_only
522,513,758 Korolev Parkway,NaN,Andhra Pradesh,568,75474,441628280920,b'\x00\x00\x00\x00\x01\x01\x00\x00\x001\xda\x99\xf8Y(T@\xafR\x8b\xd2\xef\x840@',2014-09-25 22:31:29,left_only
523,43,306 Antofagasta Place,NaN,Esprito Santo,569,3989,378318851631,b'\x00\x00\x00\x00\x01\x01\x00\x00\x00\x00\x00\x00\x00\x00\x00\x00\x00\x00\x00\x00\x00\x00\x00\x00\x00',2014-09-25 22:30:23,left_only
524,320,1542 Lubumbashi Boulevard,NaN,Tel Aviv,57,62472,508800331065,b'\x00\x00\x00\x00\x01\x01\x00\x00\x00v_\x84\xdf<`A@<\xab`\xaf\x0b\x03@@',2014-09-25 22:31:41,left_only
525,563,1059 Yuncheng Avenue,NaN,Vilna,570,47498,107092893983,b'\x00\x00\x00\x00\x01\x01\x00\x00\x00F\xb8$b\xa5G9@\xba\n\xce\x856XK@',2014-09-25 22:31:58,left_only
526,529,600 Purnea (Purnia) Avenue,NaN,Nghe An,571,18043,638409958875,b'\x00\x00\x00\x00\x01\x01\x00\x00\x00\x96#d OlZ@zm6Vb\xac2@',2014-09-25 22:34:07,left_only
527,379,1133 Rizhao Avenue,NaN,Pernambuco,572,2800,600264533987,b'\x00\x00\x00\x00\x01\x01\x00\x00\x00\x00\x00\x00\x00\x00\x00\x00\x00\x00\x00\x00\x00\x00\x00\x00\x00',2014-09-25 22:30:23,left_only
528,281,1944 Bamenda Way,NaN,Michigan,573,24645,75975221996,b'\x00\x00\x00\x00\x01\x01\x00\x00\x00\xb8\xb6Kv\xc7\xc1T\xc0\xef%CD =E@',2014-09-25 22:34:03,left_only
529,594,1464 Kursk Parkway,NaN,Shandong,574,17381,338758048786,b'\x00\x00\x00\x00\x01\x01\x00\x00\x00\x8c\xa2\x07>\x86\xc6]@\x05Vi\xe6$[B@',2014-09-25 22:30:44,left_only
530,205,68 Molodetšno Manor,NaN,Nordrhein-Westfalen,575,4662,146640639760,b'\x00\x00\x00\x00\x01\x01\x00\x00\x00\xee\xf3s\x9e\x0ci\x1d@\xfeHl\xd2\xc8\xb8I@',2014-09-25 22:31:06,left_only
531,4,1411 Lillydale Drive,NaN,QLD,576,NaN,6172235589,"b'\x00\x00\x00\x00\x01\x01\x00\x00\x00[\r\xe44\x1f&c@B\xd6\xaed""\xa2;\xc0'",2014-09-25 22:30:09,left_only
532,2,28 MySQL Boulevard,NaN,QLD,576,NaN,NaN,"b'\x00\x00\x00\x00\x01\x01\x00\x00\x00\x8e\x10\xd4\xdf\x81$c@N\xe0\x8cP""\xa2;\xc0'",2014-09-25 22:30:09,left_only
533,564,505 Madiun Boulevard,NaN,Dolnoslaskie,577,97271,970638808606,b'\x00\x00\x00\x00\x01\x01\x00\x00\x00\xf0\xd4m\x9a\x88\x081@#\xa9;\x05\xaf\x91I@',2014-09-25 22:32:44,left_only
534,245,1103 Bilbays Parkway,NaN,Hubei,578,87660,279979529227,b'\x00\x00\x00\x00\x01\x01\x00\x00\x00\xa7n\xd3DD\t\@\x124\xc1\xcbg\x05@@',2014-09-25 22:30:45,left_only
535,71,1586 Guarujá Place,NaN,Hunan,579,5135,947233365992,b'\x00\x00\x00\x00\x01\x01\x00\x00\x00\xad:\x06\xbf\xe8?\@\x83\x04{\x02\x17\xda;@',2014-09-25 22:30:46,left_only
536,176,29 Pyongyang Loop,NaN,Batman,58,47753,734780743462,b'\x00\x00\x00\x00\x01\x01\x00\x00\x00\x1cC\x00p\xec\x90D@<\x89c\xb8\x95\xf1B@',2014-09-25 22:33:23,left_only
537,570,415 Pune Avenue,NaN,Shandong,580,44274,203202500108,b'\x00\x00\x00\x00\x01\x01\x00\x00\x00\xcc8W\xde\x1fp]@\x8f&\xcd\xd5E\xf3A@',2014-09-25 22:30:47,left_only
538,344,1909 Benguela Lane,NaN,Henan,581,19913,624138001031,b'\x00\x00\x00\x00\x01\x01\x00\x00\x00\xf4\xadj\xa4\x80w\@f\xeb*\xee\x89\xa7A@',2014-09-25 22:30:47,left_only
539,16,808 Bhopal Manor,NaN,Haryana,582,10672,465887807014,b'\x00\x00\x00\x00\x01\x01\x00\x00\x00\x00\x00\x00\x00\x00\x00\x00\x00\x00\x00\x00\x00\x00\x00\x00\x00',2014-09-25 22:31:30,left_only
540,519,962 Tama Loop,NaN,NaN,583,65952,282667506728,"b'\x00\x00\x00\x00\x01\x01\x00\x00\x00\xfaT_\xa7""\xddd@\xaaz\x9e\xe4\xb3!\xe1\xbf'",2014-09-25 22:32:19,left_only
541,277,85 San Felipe de Puerto Plata Drive,NaN,Shandong,584,46063,170739645687,b'\x00\x00\x00\x00\x01\x01\x00\x00\x00\xea`XY6\^@\xef\x10\x10\xdd\xfd\xbcB@',2014-09-25 22:30:48,left_only
542,366,114 Jalib al-Shuyukh Manor,NaN,Centre,585,60440,845378657301,b'\x00\x00\x00\x00\x01\x01\x00\x00\x00\x00\x00\x00\x00\x00\x00\x00\x00\x00\x00\x00\x00\x00\x00\x00\x00',2014-09-25 22:30:25,left_only
543,45,42 Brindisi Place,NaN,Yerevan,586,16744,42384721397,b'\x00\x00\x00\x00\x01\x01\x00\x00\x00(\x1b\xc5(\xbeAF@;\xd4\x00\xef.\x17D@',2014-09-25 22:30:08,left_only
544,489,1297 Alvorada Parkway,NaN,Ningxia,587,11839,508348602835,b'\x00\x00\x00\x00\x01\x01\x00\x00\x00\x15\x83\xd1\xf6y\x91Z@)\x87`f\xe9;C@',2014-09-25 22:30:49,left_only
545,527,1993 0 Loop,NaN,Liaoning,588,41214,25865528181,b'\x00\x00\x00\x00\x01\x01\x00\x00\x00\xb6^\x1d\x11\x9d\x8e^@\x17\x1a>\xd8\x18UD@',2014-09-25 22:30:49,left_only
546,502,1515 Korla Way,NaN,England,589,57197,959467760895,b'\x00\x00\x00\x00\x01\x01\x00\x00\x00LB\xd8\xdf\xc8R\xf1\xbf\xba\x82m\xc4\x93\xfaJ@',2014-09-25 22:33:42,left_only
547,446,1924 Shimonoseki Drive,NaN,Batna,59,52625,406784385440,b'\x00\x00\x00\x00\x01\x01\x00\x00\x004|\xb01T\xb2\x18@\xdf\x81K\x11*\xc7A@',2014-09-25 22:29:59,left_only
548,158,798 Cianjur Avenue,NaN,Shanxi,590,76990,499408708580,b'\x00\x00\x00\x00\x01\x01\x00\x00\x00\x13\xd6\xc6\xd8\x89\xbf[@\x9bK\xbb\xe2\xf3\x82A@',2014-09-25 22:30:49,left_only
549,329,867 Benin City Avenue,NaN,Henan,591,78543,168884817145,b'\x00\x00\x00\x00\x01\x01\x00\x00\x00\xa0\xf2\xf9r\xb0]\@]hS\x1a\xd6\x14A@',2014-09-25 22:30:50,left_only
550,97,832 Nakhon Sawan Manor,NaN,Inner Mongolia,592,49021,275595571388,b'\x00\x00\x00\x00\x01\x01\x00\x00\x00S\U\xf6\xdd\xad^@\x00\x00\x00\x1di\xfa\xbcA',2014-09-25 22:30:50,left_only
551,224,1842 Luziânia Boulevard,NaN,Zanzibar West,593,94420,706878974831,"b'\x00\x00\x00\x00\x01\x01\x00\x00\x00E\xe1i\xe8U\x99C@\xb6,_\x97\xe1\xa7\x18\xc0'",2014-09-25 22:33:19,left_only
552,520,1778 Gijón Manor,NaN,Hubei,594,35156,288910576761,b'\x00\x00\x00\x00\x01\x01\x00\x00\x00\xe3XrpD0\@\xa5\x8a=\x0fI\x10@@',2014-09-25 22:30:50,left_only
553,470,1088 Ibirité Place,NaN,Jalisco,595,88502,49084281333,b'\x00\x00\x00\x00\x01\x01\x00\x00\x00x W\x8f\xa0\xd8Y\xc0j\xe5\x14\xd3;\xb94@',2014-09-25 22:32:15,left_only
554,236,885 Yingkou Manor,NaN,Kaduna,596,31390,588964509072,b'\x00\x00\x00\x00\x01\x01\x00\x00\x00\x06\xcf)m\x16\xe4\x1e@8\xe3\xea\xb6\xfa8&@',2014-09-25 22:32:28,left_only
555,356,1378 Beira Loop,NaN,Krasnojarsk,597,40792,840957664136,b'\x00\x00\x00\x00\x01\x01\x00\x00\x00\x00\x00\x00\x00\x00\x00\x00\x00\x00\x00\x00\x00\x00\x00\x00\x00',2014-09-25 22:32:58,left_only
556,579,521 San Juan Bautista Tuxtepec Place,NaN,Qaraghandy,598,95093,844018348565,b'\x00\x00\x00\x00\x01\x01\x00\x00\x00hH\xcb7\x11\xf1P@\xe3*`LD\xe4G@',2014-09-25 22:31:56,left_only
557,556,346 Cam Ranh Avenue,NaN,Zhejiang,599,39976,978430786151,b'\x00\x00\x00\x00\x01\x01\x00\x00\x00\xa0\xe6?\xff\x18\x8d^@V\xdb\xa8\xa9\xc0\x02>@',2014-09-25 22:30:51,left_only
558,397,614 Pak Kret Street,NaN,Addis Abeba,6,27796,47808359842,"b'\x00\x00\x00\x00\x01\x01\x00\x00\x00\x9f\x84\xe3C\x9a_C@""3\xbc\xfe\xc9\x0c""@'",2014-09-25 22:30:59,left_only
559,522,1768 Udine Loop,NaN,Battambang,60,32347,448876499197,b'\x00\x00\x00\x00\x01\x01\x00\x00\x00p\x88\x02\xc7\xaf\xccY@*\xbc\x15\xd3\x964*@',2014-09-25 22:30:24,left_only
560,461,1889 Valparai Way,NaN,Ziguinchor,600,75559,670370974122,b'\x00\x00\x00\x00\x01\x01\x00\x00\x00 \xe1\xc5\x0c\x9eE0\xc0\xfc!\x91\x11\xab*)@',2014-09-25 22:33:01,left_only
561,75,492 Cam Ranh Street,NaN,Eastern Visayas,61,50805,565018274456,b'\x00\x00\x00\x00\x01\x01\x00\x00\x00u\x00\xc4]=3_@\xb9\x02e\xaeg[%@',2014-09-25 22:32:34,left_only
562,192,1166 Changhwa Street,NaN,Caraga,62,58852,650752094490,b'\x00\x00\x00\x00\x01\x01\x00\x00\x00\x9d\xb7V \x1fq_@\xf5>\x9f\x12!\x83!@',2014-09-25 22:32:34,left_only
563,73,1031 Daugavpils Parkway,NaN,Béchar,63,59025,107137400143,b'\x00\x00\x00\x00\x01\x01\x00\x00\x00\x00\x00\x00\x00\x00\x00\x00\x00\x00\x00\x00\x00\x00\x00\x00\x00',2014-09-25 22:29:59,left_only
564,262,771 Yaoundé Manor,NaN,Sofala,64,86768,245477603573,b'\x00\x00\x00\x00\x01\x01\x00\x00\x00\x103E\xca`kA@F\xcb&e\xf7\xd73\xc0',2014-09-25 22:32:17,left_only
565,216,660 Jedda Boulevard,NaN,Washington,65,25053,168758068397,b'\x00\x00\x00\x00\x01\x01\x00\x00\x00\t\xee\xf6\x0f\xd8\x8c^\xc0<3\x1c*!\xceG@',2014-09-25 22:33:45,left_only
566,367,1163 London Parkway,NaN,Par,66,6066,675120358494,b'\x00\x00\x00\x00\x01\x01\x00\x00\x00\x00\x00\x00\x00\x00\x00\x00\x00\x00\x00\x00\x00\x00\x00\x00\x00',2014-09-25 22:30:16,left_only
567,534,486 Ondo Parkway,NaN,Benguela,67,35202,105882218332,"b""\x00\x00\x00\x00\x01\x01\x00\x00\x00\xbd\x83\xe9\xc5\x9a\xcf*@\xb9\xfaV\x90\x0b')\xc0""",2014-09-25 22:30:02,left_only
568,549,454 Qinhuangdao Drive,NaN,Tadla-Azilal,68,25866,786270036240,b'\x00\x00\x00\x00\x01\x01\x00\x00\x00A\x94y\xf5;f\x19\xc0O\t\xe3\x02++@@',2014-09-25 22:32:16,left_only
569,289,1279 Udine Parkway,NaN,Edo & Delta,69,75860,195003555232,b'\x00\x00\x00\x00\x01\x01\x00\x00\x00\xff\xb7\xed\xd6\x8d\x82\x16@\x8f\xf4\xb3\xa2\x17W\x19@',2014-09-25 22:32:23,left_only
570,214,751 Lima Loop,NaN,Aden,7,99405,756460337785,b'\x00\x00\x00\x00\x01\x01\x00\x00\x00^\xcf!\xba\xb1\x84F@\xa9\x00s\x88\x13\x8f)@',2014-09-25 22:34:08,left_only
571,444,231 Kaliningrad Place,NaN,Lombardia,70,57833,575081026569,b'\x00\x00\x00\x00\x01\x01\x00\x00\x00z\x18Z\x9d\x9cU#@\xa7~9\x0e\x17\xd9F@',2014-09-25 22:31:42,left_only
572,418,126 Acuña Parkway,NaN,West Bengali,71,58888,480039662421,b'\x00\x00\x00\x00\x01\x01\x00\x00\x00\xc3\x01>\x89\x19\x10V@N\x9fx)\xd0\x1a8@',2014-09-25 22:31:11,left_only
573,159,185 Novi Sad Place,NaN,Bern,72,41778,904253967161,"b'\x00\x00\x00\x00\x01\x01\x00\x00\x00\x00\xd0\xbcw/\xca\x1d@7},3[yG@'",2014-09-25 22:33:13,left_only
574,384,97 Mogiljov Lane,NaN,Gujarat,73,89294,924815207181,b'\x00\x00\x00\x00\x01\x01\x00\x00\x00\xb4\xf1\x16\xfe\xc2\tR@\x97\xdb\x07jB\xc65@',2014-09-25 22:31:11,left_only
575,213,43 Dadu Avenue,NaN,Rajasthan,74,4855,95666951770,b'\x00\x00\x00\x00\x01\x01\x00\x00\x00\xbc\xf9W\xa0\xa7\xa8R@@F\xe5\xcb\xb0X9@',2014-09-25 22:31:12,left_only
576,535,635 Brest Manor,NaN,Andhra Pradesh,75,40899,80593242951,b'\x00\x00\x00\x00\x01\x01\x00\x00\x00y\xfaR\x89|aT@\xd2\xc9\xad\xa4p\x8a0@',2014-09-25 22:31:13,left_only
577,19,419 Iligan Lane,NaN,Madhya Pradesh,76,72878,990911107354,b'\x00\x00\x00\x00\x01\x01\x00\x00\x00\xb7\xb0\x13\x03\xc9YS@\xe6\xf1\x0f\xb63A7@',2014-09-25 22:31:13,left_only
578,206,642 Nador Drive,NaN,Maharashtra,77,3924,369050085652,b'\x00\x00\x00\x00\x01\x01\x00\x00\x00U\x9dzI\x08\xf2R@\xe0\x10\xaa\xd4\xec\x0b5@',2014-09-25 22:31:13,left_only
579,473,1257 Guadalajara Street,NaN,Karnataka,78,33599,195337700615,b'\x00\x00\x00\x00\x01\x01\x00\x00\x00\x05 I\xa4\xc8\xedR@\xe7\x02\xf2\x80\r\xd30@',2014-09-25 22:31:14,left_only
580,565,1741 Hoshiarpur Boulevard,NaN,al-Sharqiya,79,22372,855066328617,b'\x00\x00\x00\x00\x01\x01\x00\x00\x00\x00\x00\x00\x00\x00\x00\x00\x00\x00\x00\x00\x00\x00\x00\x00\x00',2014-09-25 22:30:56,left_only
581,372,230 Urawa Drive,NaN,Andhra Pradesh,8,2738,166898395731,b'\x00\x00\x00\x00\x01\x01\x00\x00\x00\x8b\x04\xae\x86\x9fQS@\xb2\x93\x0b\xdf\x0c@/@',2014-09-25 22:31:09,left_only
582,539,1332 Gaziantep Lane,NaN,Shandong,80,22813,383353187467,b'\x00\x00\x00\x00\x01\x01\x00\x00\x00\xbc/\x1d)\x11\x81]@t\xb0\xa3\x16\xef\xaeB@',2014-09-25 22:30:31,left_only
583,326,470 Boksburg Street,NaN,Central,81,97960,908029859266,b'\x00\x00\x00\x00\x01\x01\x00\x00\x00\xda\xe7\x8c\x83&8U@[\xe2\x12\x91\xab\x02;@',2014-09-25 22:32:19,left_only
584,98,152 Kitwe Parkway,NaN,Caraga,82,53182,835433605312,b'\x00\x00\x00\x00\x01\x01\x00\x00\x00\xdfe+\xd4?\x94_@\x06\xca\xb7\x889n @',2014-09-25 22:32:35,left_only
585,210,1304 ´s-Hertogenbosch Way,NaN,Santa Catarina,83,10925,90336226227,b'\x00\x00\x00\x00\x01\x01\x00\x00\x00\xbd\xea\xb7ev\x88H\xc0WU\xd4\x05a\xeb:\xc0',2014-09-25 22:30:16,left_only
586,347,1293 Nam Dinh Way,NaN,Roraima,84,71583,697656479977,b'\x00\x00\x00\x00\x01\x01\x00\x00\x00\x8e\xe6\xc8\xca/VN\xc0\xd9\xc2=\xe0\xcb\x8e\x06@',2014-09-25 22:30:17,left_only
587,129,569 Baicheng Lane,NaN,Gauteng,85,60304,490211944645,b'\x00\x00\x00\x00\x01\x01\x00\x00\x00\xd7\x1eQ\xfcsB<@H\xaeQ\xc5C6:\xc0',2014-09-25 22:33:02,left_only
588,234,1256 Bislig Boulevard,NaN,Botosani,86,50598,479007229460,b'\x00\x00\x00\x00\x01\x01\x00\x00\x00\x85\x05\x9cJ\xab\xaa:@\x8d\xacF\xc02\xe0G@',2014-09-25 22:32:46,left_only
589,136,898 Belém Manor,NaN,Free State,87,49757,707169393853,b'\x00\x00\x00\x00\x01\x01\x00\x00\x00\xedL\xfc\xac\x8d\xb4:@\x9e\xacb;)E=\xc0',2014-09-25 22:33:02,left_only
590,89,1557 Kütahya Boulevard,NaN,England,88,88002,720998247660,b'\x00\x00\x00\x00\x01\x01\x00\x00\x00\x1bC\xa5\xb6y\x08\xfc\xbfC\x9d\x03\x15\x9f\xe5J@',2014-09-25 22:33:36,left_only
591,330,981 Kumbakonam Place,NaN,Distrito Federal,89,87611,829116184079,b'\x00\x00\x00\x00\x01\x01\x00\x00\x00\x00\x00\x00\x00\x00\x00\x00\x00\x00\x00\x00\x00\x00\x00\x00\x00',2014-09-25 22:30:17,left_only
592,302,922 Vila Velha Loop,NaN,Maharashtra,9,4085,510737228015,b'\x00\x00\x00\x00\x01\x01\x00\x00\x00s\x8f[\x82B\xafR@a!)\xd85\x183@',2014-09-25 22:31:10,left_only
593,362,482 Kowloon and New Kowloon Manor,NaN,Bratislava,90,97056,738968474939,b'\x00\x00\x00\x00\x01\x01\x00\x00\x00p\xdc\x18\xf1S\x1b1@\xbd\xb9\t\x08\xf7\x12H@',2014-09-25 22:33:02,left_only
594,314,1224 Huejutla de Reyes Boulevard,NaN,Lombardia,91,70923,806016930576,b'\x00\x00\x00\x00\x01\x01\x00\x00\x00\xd8[o@\xf0m$@^\xee8\xea\x8d\xc4F@',2014-09-25 22:31:43,left_only
595,407,1346 Mysore Drive,NaN,Bretagne,92,61507,516647474029,b'\x00\x00\x00\x00\x01\x01\x00\x00\x00Dt\xbe\x8e\xee\xee\x11\xc0p\x01\r\xdb\xbb?H@',2014-09-25 22:31:00,left_only
596,504,1 Valle de Santiago Avenue,NaN,Apulia,93,86208,465897838272,b'\x00\x00\x00\x00\x01\x01\x00\x00\x00\xca\xfe\xd4\xd3\xa2\xef1@XM|Z\xeaPD@',2014-09-25 22:31:43,left_only
597,153,782 Mosul Street,NaN,Massachusetts,94,25545,885899703621,b'\x00\x00\x00\x00\x01\x01\x00\x00\x00\xe9\xc4\xd4L-\xc1Q\xc0\xd1ha\x05\xae\nE@',2014-09-25 22:33:46,left_only
598,569,1342 Abha Boulevard,NaN,Bukarest,95,10714,997453607116,b'\x00\x00\x00\x00\x01\x01\x00\x00\x00\x92O\xd9\xfa3\x1b:@\xb1\xcb\xa6\x12T7F@',2014-09-25 22:32:46,left_only
599,239,98 Stara Zagora Boulevard,NaN,Valle,96,76448,610173756082,b'\x00\x00\x00\x00\x01\x01\x00\x00\x00\x84\xcdJ\xa4\xfeAS\xc0\xdb\x99S\x13\x8e\n\x0f@',2014-09-25 22:30:51,left_only
600,323,1769 Iwaki Lane,NaN,Kujawsko-Pomorskie,97,25787,556100547674,b'\x00\x00\x00\x00\x01\x01\x00\x00\x00H{r\x03\xf4\x012@\x83~\xf0\xeb\xd1\x8fJ@',2014-09-25 22:32:41,left_only
601,376,1061 Ede Avenue,NaN,Southern Tagalog,98,57810,333390595558,b'\x00\x00\x00\x00\x01\x01\x00\x00\x00\x00\x00\x00\x00\x00\x00\x00\x00\x00\x00\x00\x00\x00\x00\x00\x00',2014-09-25 22:32:35,left_only
602,309,827 Yuncheng Drive,NaN,Callao,99,79047,504434452842,"b""\x00\x00\x00\x00\x01\x01\x00\x00\x00\xc2QM\xa4\x8fGS\xc0'\x1c\xd5D\xfa\x1c(\xc0""",2014-09-25 22:32:32,left_only
